{"type":"FeatureCollection","schema":"NAV KURD major locality runtime v1","version":"2026-07-22-nav-kurd-systematic-dedupe-2027","records":226,"features":[{"type":"Feature","geometry":{"type":"Point","coordinates":[45.5522421,33.7464993]},"properties":{"id":"osm-node-2488516716","place":"town","category":"town","population":"0"}},{"type":"Feature","geometry":{"type":"Point","coordinates":[45.3919154,34.3475129]},"properties":{"id":"osm-node-2488546069","place":"town","category":"town","population":"170000"}},{"type":"Feature","geometry":{"type":"Point","coordinates":[45.1182834,34.1863032]},"properties":{"id":"osm-node-288765264","place":"town","category":"town","population":"0"}},{"type":"Feature","geometry":{"type":"Point","coordinates":[45.4948531,34.6065617]},"properties":{"id":"osm-node-7373021519","place":"town","category":"town","population":"0"}},{"type":"Feature","geometry":{"type":"Point","coordinates":[45.1666986,34.2738201]},"properties":{"id":"osm-node-288763386","place":"town","category":"town","population":"0"}},{"type":"Feature","geometry":{"type":"Point","coordinates":[44.9290448,34.5944315]},"properties":{"id":"osm-node-2488643041","place":"town","category":"town","population":"0"}},{"type":"Feature","geometry":{"type":"Point","coordinates":[45.0656829,34.742806]},"properties":{"id":"osm-node-7195168835","place":"town","category":"town","population":"10000"}},{"type":"Feature","geometry":{"type":"Point","coordinates":[44.9281062,34.4345014]},"properties":{"id":"osm-node-2488619451","place":"town","category":"town","population":"0"}},{"type":"Feature","geometry":{"type":"Point","coordinates":[44.9603501,34.6865956]},"properties":{"id":"osm-node-8465028264","place":"town","category":"town","population":"32870"}},{"type":"Feature","geometry":{"type":"Point","coordinates":[45.1668535,34.4646039]},"properties":{"id":"osm-node-7728087374","place":"town","category":"town","population":"0"}},{"type":"Feature","geometry":{"type":"Point","coordinates":[43.361423204569206,37.0473107]},"properties":{"id":"osm-way-440597129","place":"town","category":"town","population":"0"}},{"type":"Feature","geometry":{"type":"Point","coordinates":[43.3615094,37.0464214]},"properties":{"id":"osm-node-5567762249","place":"town","category":"town","population":"7000"}},{"type":"Feature","geometry":{"type":"Point","coordinates":[43.4874378,37.0919695]},"properties":{"id":"osm-node-213526185","place":"town","category":"town","population":"6000"}},{"type":"Feature","geometry":{"type":"Point","coordinates":[43.2701305,37.1214337]},"properties":{"id":"osm-node-2480172499","place":"town","category":"town","population":"0"}},{"type":"Feature","geometry":{"type":"Point","coordinates":[43.648005,37.055263]},"properties":{"id":"osm-node-2482498582","place":"town","category":"town","population":"10000"}},{"type":"Feature","geometry":{"type":"Point","coordinates":[43.776391204120976,37.03323935]},"properties":{"id":"osm-way-1324236693","place":"town","category":"town","population":"0"}},{"type":"Feature","geometry":{"type":"Point","coordinates":[43.411646,36.9393473]},"properties":{"id":"osm-node-2488236876","place":"town","category":"town","population":"0"}},{"type":"Feature","geometry":{"type":"Point","coordinates":[43.4388506,37.2288413]},"properties":{"id":"osm-node-2482495226","place":"town","category":"town","population":"0"}},{"type":"Feature","geometry":{"type":"Point","coordinates":[43.7845885,37.0300103]},"properties":{"id":"osm-node-12285070797","place":"town","category":"town","population":"0"}},{"type":"Feature","geometry":{"type":"Point","coordinates":[42.9924528,36.8542598]},"properties":{"id":"osm-node-99474380","place":"city","category":"city","population":"226899"}},{"type":"Feature","geometry":{"type":"Point","coordinates":[43.0672912,36.8471628]},"properties":{"id":"osm-node-8757797144","place":"town","category":"town","population":"0"}},{"type":"Feature","geometry":{"type":"Point","coordinates":[43.146902,36.906658]},"properties":{"id":"osm-node-2482486470","place":"town","category":"town","population":"0"}},{"type":"Feature","geometry":{"type":"Point","coordinates":[43.095378,37.03762]},"properties":{"id":"osm-node-2482486468","place":"town","category":"town","population":"0"}},{"type":"Feature","geometry":{"type":"Point","coordinates":[42.6810078,36.9608059]},"properties":{"id":"osm-node-2488238143","place":"town","category":"town","population":"0"}},{"type":"Feature","geometry":{"type":"Point","coordinates":[42.9018623,36.8637238]},"properties":{"id":"osm-node-8955446295","place":"town","category":"town","population":"0"}},{"type":"Feature","geometry":{"type":"Point","coordinates":[42.7872108,36.785569]},"properties":{"id":"osm-node-12421479393","place":"town","category":"town","population":"0"}},{"type":"Feature","geometry":{"type":"Point","coordinates":[42.8472663,36.8568588]},"properties":{"id":"osm-node-1438279862","place":"town","category":"town","population":"0"}},{"type":"Feature","geometry":{"type":"Point","coordinates":[42.9287981,36.7596273]},"properties":{"id":"osm-node-2488213208","place":"town","category":"town","population":"0"}},{"type":"Feature","geometry":{"type":"Point","coordinates":[42.9768403095173,36.7876008]},"properties":{"id":"osm-way-236985682","place":"town","category":"town","population":"0"}},{"type":"Feature","geometry":{"type":"Point","coordinates":[42.5660021,37.138585]},"properties":{"id":"osm-node-2488238154","place":"town","category":"town","population":"0"}},{"type":"Feature","geometry":{"type":"Point","coordinates":[43.0132486,37.1743722]},"properties":{"id":"osm-node-2480167093","place":"town","category":"town","population":"30000"}},{"type":"Feature","geometry":{"type":"Point","coordinates":[43.1624378,37.2381039]},"properties":{"id":"osm-node-2480167945","place":"town","category":"town","population":"0"}},{"type":"Feature","geometry":{"type":"Point","coordinates":[42.8225436,37.1986523]},"properties":{"id":"osm-node-2480157973","place":"town","category":"town","population":"0"}},{"type":"Feature","geometry":{"type":"Point","coordinates":[42.6822907,37.1433762]},"properties":{"id":"osm-node-213402531","place":"town","category":"town","population":"197163"}},{"type":"Feature","geometry":{"type":"Point","coordinates":[44.0393768,36.9304514]},"properties":{"id":"osm-node-2488259320","place":"town","category":"town","population":"0"}},{"type":"Feature","geometry":{"type":"Point","coordinates":[44.2047429,36.9816357]},"properties":{"id":"osm-node-2482510693","place":"town","category":"town","population":"0"}},{"type":"Feature","geometry":{"type":"Point","coordinates":[44.0094145,36.1911744]},"properties":{"id":"osm-node-599019138","place":"city","category":"city","population":"1713461"}},{"type":"Feature","geometry":{"type":"Point","coordinates":[44.1121197,36.1520853]},"properties":{"id":"osm-node-2135696849","place":"town","category":"town","population":"80000"}},{"type":"Feature","geometry":{"type":"Point","coordinates":[44.19905096157541,36.0455669]},"properties":{"id":"osm-way-303702847","place":"town","category":"town","population":"0"}},{"type":"Feature","geometry":{"type":"Point","coordinates":[44.1989584,36.0451221]},"properties":{"id":"osm-node-2479369784","place":"town","category":"town","population":"0"}},{"type":"Feature","geometry":{"type":"Point","coordinates":[44.0383507,36.3189417]},"properties":{"id":"osm-node-2480142526","place":"town","category":"town","population":"32710"}},{"type":"Feature","geometry":{"type":"Point","coordinates":[43.7341651,36.2811688]},"properties":{"id":"osm-node-9263546974","place":"town","category":"town","population":"0"}},{"type":"Feature","geometry":{"type":"Point","coordinates":[44.0628958,36.1196371]},"properties":{"id":"osm-node-9991770213","place":"town","category":"town","population":"0"}},{"type":"Feature","geometry":{"type":"Point","coordinates":[44.08476,36.2476892]},"properties":{"id":"osm-node-2136497882","place":"town","category":"town","population":"0"}},{"type":"Feature","geometry":{"type":"Point","coordinates":[43.9209808,36.0285248]},"properties":{"id":"osm-node-12250306223","place":"town","category":"town","population":"0"}},{"type":"Feature","geometry":{"type":"Point","coordinates":[43.9953348,36.2283587]},"properties":{"id":"osm-node-2479376280","place":"town","category":"town","population":"0"}},{"type":"Feature","geometry":{"type":"Point","coordinates":[44.043553597561186,35.98393255]},"properties":{"id":"osm-way-1332407212","place":"town","category":"town","population":"0"}},{"type":"Feature","geometry":{"type":"Point","coordinates":[44.0352971,36.0016177]},"properties":{"id":"osm-node-12407555502","place":"town","category":"town","population":"0"}},{"type":"Feature","geometry":{"type":"Point","coordinates":[44.0705852,36.2668593]},"properties":{"id":"osm-node-2480142530","place":"town","category":"town","population":"0"}},{"type":"Feature","geometry":{"type":"Point","coordinates":[44.141239,36.2013702]},"properties":{"id":"osm-node-5207981686","place":"town","category":"town","population":"25000"}},{"type":"Feature","geometry":{"type":"Point","coordinates":[43.8027187,36.3476962]},"properties":{"id":"osm-node-12234416389","place":"town","category":"town","population":"0"}},{"type":"Feature","geometry":{"type":"Point","coordinates":[44.512477,35.9629118]},"properties":{"id":"osm-node-10057969357","place":"town","category":"town","population":"750"}},{"type":"Feature","geometry":{"type":"Point","coordinates":[44.5855646,35.8888613]},"properties":{"id":"osm-node-2488270116","place":"town","category":"town","population":"0"}},{"type":"Feature","geometry":{"type":"Point","coordinates":[44.5883689,35.8731035]},"properties":{"id":"osm-node-9922102822","place":"town","category":"town","population":"0"}},{"type":"Feature","geometry":{"type":"Point","coordinates":[44.7837011,35.9194305]},"properties":{"id":"osm-node-2488272956","place":"town","category":"town","population":"0"}},{"type":"Feature","geometry":{"type":"Point","coordinates":[44.3845127,36.177232]},"properties":{"id":"osm-node-6636010496","place":"town","category":"town","population":"0"}},{"type":"Feature","geometry":{"type":"Point","coordinates":[44.61612,36.236085]},"properties":{"id":"osm-node-2488269861","place":"town","category":"town","population":"0"}},{"type":"Feature","geometry":{"type":"Point","coordinates":[44.4434187,35.8774092]},"properties":{"id":"osm-node-2488260195","place":"town","category":"town","population":"0"}},{"type":"Feature","geometry":{"type":"Point","coordinates":[44.6276893,36.0848077]},"properties":{"id":"osm-node-470018430","place":"town","category":"town","population":"44987"}},{"type":"Feature","geometry":{"type":"Point","coordinates":[43.5455208,35.6431869]},"properties":{"id":"osm-node-4407366448","place":"town","category":"town","population":"0"}},{"type":"Feature","geometry":{"type":"Point","coordinates":[43.8099973,35.8753201]},"properties":{"id":"osm-node-5215121862","place":"town","category":"town","population":"0"}},{"type":"Feature","geometry":{"type":"Point","coordinates":[43.5799521,35.775517]},"properties":{"id":"osm-node-7726016947","place":"town","category":"town","population":"50000"}},{"type":"Feature","geometry":{"type":"Point","coordinates":[43.648704,35.9411344]},"properties":{"id":"osm-node-2484151229","place":"town","category":"town","population":"0"}},{"type":"Feature","geometry":{"type":"Point","coordinates":[43.4978836,36.0458634]},"properties":{"id":"osm-node-5026595076","place":"town","category":"town","population":"0"}},{"type":"Feature","geometry":{"type":"Point","coordinates":[44.4230714,36.9953257]},"properties":{"id":"osm-node-2482506584","place":"town","category":"town","population":"0"}},{"type":"Feature","geometry":{"type":"Point","coordinates":[45.0440451,36.6754741]},"properties":{"id":"osm-node-2480241725","place":"town","category":"town","population":"0"}},{"type":"Feature","geometry":{"type":"Point","coordinates":[44.4018997,36.607823]},"properties":{"id":"osm-node-2488259960","place":"town","category":"town","population":"18146"}},{"type":"Feature","geometry":{"type":"Point","coordinates":[44.4105072,36.6441178]},"properties":{"id":"osm-node-2488260215","place":"town","category":"town","population":"5185"}},{"type":"Feature","geometry":{"type":"Point","coordinates":[44.5422044,36.6554768]},"properties":{"id":"osm-node-1413814168","place":"town","category":"town","population":"125000"}},{"type":"Feature","geometry":{"type":"Point","coordinates":[44.663435,36.803556]},"properties":{"id":"osm-node-2488199582","place":"town","category":"town","population":"0"}},{"type":"Feature","geometry":{"type":"Point","coordinates":[44.7318815,36.6797587]},"properties":{"id":"osm-node-2488203299","place":"town","category":"town","population":"0"}},{"type":"Feature","geometry":{"type":"Point","coordinates":[44.8246539,36.5580142]},"properties":{"id":"osm-node-7512645790","place":"town","category":"town","population":"0"}},{"type":"Feature","geometry":{"type":"Point","coordinates":[44.3065006,36.8376877]},"properties":{"id":"osm-node-2488260053","place":"town","category":"town","population":"0"}},{"type":"Feature","geometry":{"type":"Point","coordinates":[44.4563624,36.7436724]},"properties":{"id":"osm-node-2488269692","place":"town","category":"town","population":"0"}},{"type":"Feature","geometry":{"type":"Point","coordinates":[44.7535,36.501611]},"properties":{"id":"osm-node-2488273052","place":"town","category":"town","population":"0"}},{"type":"Feature","geometry":{"type":"Point","coordinates":[44.353111,36.906868]},"properties":{"id":"osm-node-2482506327","place":"town","category":"town","population":"0"}},{"type":"Feature","geometry":{"type":"Point","coordinates":[44.886767,36.63631]},"properties":{"id":"osm-node-2480243570","place":"town","category":"town","population":"0"}},{"type":"Feature","geometry":{"type":"Point","coordinates":[44.5265186,36.6145961]},"properties":{"id":"osm-node-2488205967","place":"town","category":"town","population":"95089"}},{"type":"Feature","geometry":{"type":"Point","coordinates":[44.823147,36.6118366]},"properties":{"id":"osm-node-2488204219","place":"town","category":"town","population":"0"}},{"type":"Feature","geometry":{"type":"Point","coordinates":[44.19384212112908,36.38514225]},"properties":{"id":"osm-way-130639898","place":"town","category":"town","population":"0"}},{"type":"Feature","geometry":{"type":"Point","coordinates":[44.3484113,36.5036461]},"properties":{"id":"osm-node-2488259321","place":"town","category":"town","population":"0"}},{"type":"Feature","geometry":{"type":"Point","coordinates":[44.5484915,36.3964771]},"properties":{"id":"osm-node-2488268820","place":"town","category":"town","population":"0"}},{"type":"Feature","geometry":{"type":"Point","coordinates":[44.1616786,36.3363805]},"properties":{"id":"osm-node-2488259392","place":"town","category":"town","population":"0"}},{"type":"Feature","geometry":{"type":"Point","coordinates":[43.9965724,36.4037731]},"properties":{"id":"osm-node-2488259284","place":"town","category":"town","population":"0"}},{"type":"Feature","geometry":{"type":"Point","coordinates":[44.3924546,36.2989235]},"properties":{"id":"osm-node-2488260572","place":"town","category":"town","population":"0"}},{"type":"Feature","geometry":{"type":"Point","coordinates":[44.3367682,36.4000298]},"properties":{"id":"osm-node-599046987","place":"town","category":"town","population":"26261"}},{"type":"Feature","geometry":{"type":"Point","coordinates":[44.202575,36.382703]},"properties":{"id":"osm-node-2488260198","place":"town","category":"town","population":"0"}},{"type":"Feature","geometry":{"type":"Point","coordinates":[44.2369061,36.3999285]},"properties":{"id":"osm-node-2488259985","place":"town","category":"town","population":"0"}},{"type":"Feature","geometry":{"type":"Point","coordinates":[44.4924823,36.2798304]},"properties":{"id":"osm-node-2488196512","place":"town","category":"town","population":"0"}},{"type":"Feature","geometry":{"type":"Point","coordinates":[44.354093,36.5518438]},"properties":{"id":"osm-node-5167213053","place":"town","category":"town","population":"21955"}},{"type":"Feature","geometry":{"type":"Point","coordinates":[43.4499751,35.2673004]},"properties":{"id":"osm-node-2489253196","place":"town","category":"town","population":"0"}},{"type":"Feature","geometry":{"type":"Point","coordinates":[43.5948786,35.2747947]},"properties":{"id":"osm-node-2489272581","place":"town","category":"town","population":"0"}},{"type":"Feature","geometry":{"type":"Point","coordinates":[43.7824093,35.3233218]},"properties":{"id":"osm-node-9602553267","place":"town","category":"town","population":"0"}},{"type":"Feature","geometry":{"type":"Point","coordinates":[44.1334301,35.454499]},"properties":{"id":"osm-node-2488269631","place":"town","category":"town","population":"0"}},{"type":"Feature","geometry":{"type":"Point","coordinates":[44.4463821,35.1379231]},"properties":{"id":"osm-node-599167827","place":"town","category":"town","population":"0"}},{"type":"Feature","geometry":{"type":"Point","coordinates":[44.0870747,35.1344379]},"properties":{"id":"osm-node-4407405470","place":"town","category":"town","population":"0"}},{"type":"Feature","geometry":{"type":"Point","coordinates":[44.07067,35.67482]},"properties":{"id":"geonames-97001","place":"city","category":"city","population":"0"}},{"type":"Feature","geometry":{"type":"Point","coordinates":[44.0771941,35.671014]},"properties":{"id":"osm-node-2486472611","place":"town","category":"town","population":"0"}},{"type":"Feature","geometry":{"type":"Point","coordinates":[43.8977236,35.7054111]},"properties":{"id":"osm-node-2486472727","place":"town","category":"town","population":"0"}},{"type":"Feature","geometry":{"type":"Point","coordinates":[44.1427614,35.7540957]},"properties":{"id":"osm-node-7984818010","place":"town","category":"town","population":"0"}},{"type":"Feature","geometry":{"type":"Point","coordinates":[44.3953896,35.4719308]},"properties":{"id":"osm-node-248436981","place":"city","category":"city","population":"850787"}},{"type":"Feature","geometry":{"type":"Point","coordinates":[44.2774842,35.2440383]},"properties":{"id":"osm-node-2489321558","place":"town","category":"town","population":"0"}},{"type":"Feature","geometry":{"type":"Point","coordinates":[44.3312849,35.3012277]},"properties":{"id":"osm-node-2489322072","place":"town","category":"town","population":"0"}},{"type":"Feature","geometry":{"type":"Point","coordinates":[44.4877182,35.7373698]},"properties":{"id":"osm-node-2488265812","place":"town","category":"town","population":"0"}},{"type":"Feature","geometry":{"type":"Point","coordinates":[44.63899758759788,35.4927345]},"properties":{"id":"osm-way-558473033","place":"town","category":"town","population":"0"}},{"type":"Feature","geometry":{"type":"Point","coordinates":[44.641881,35.4948625]},"properties":{"id":"osm-node-7416752807","place":"town","category":"town","population":"0"}},{"type":"Feature","geometry":{"type":"Point","coordinates":[44.5119863,35.3170829]},"properties":{"id":"osm-node-7817915585","place":"town","category":"town","population":"0"}},{"type":"Feature","geometry":{"type":"Point","coordinates":[44.232795,35.439894]},"properties":{"id":"osm-node-2488265303","place":"town","category":"town","population":"0"}},{"type":"Feature","geometry":{"type":"Point","coordinates":[41.3693577,36.275399]},"properties":{"id":"osm-node-4883508640","place":"town","category":"town","population":"0"}},{"type":"Feature","geometry":{"type":"Point","coordinates":[43.3816145,36.3540175]},"properties":{"id":"osm-node-2488231719","place":"town","category":"town","population":"63000"}},{"type":"Feature","geometry":{"type":"Point","coordinates":[43.3271785,36.3445035]},"properties":{"id":"osm-node-2488247209","place":"town","category":"town","population":"26000"}},{"type":"Feature","geometry":{"type":"Point","coordinates":[43.4068133,36.146181]},"properties":{"id":"osm-node-2480188332","place":"town","category":"town","population":"0"}},{"type":"Feature","geometry":{"type":"Point","coordinates":[43.6682838,36.2763618]},"properties":{"id":"osm-node-2488231122","place":"town","category":"town","population":"30000"}},{"type":"Feature","geometry":{"type":"Point","coordinates":[43.32415633912845,36.36091305]},"properties":{"id":"osm-way-180170309","place":"town","category":"town","population":"0"}},{"type":"Feature","geometry":{"type":"Point","coordinates":[43.37758,36.27093]},"properties":{"id":"geonames-92430","place":"town","category":"town","population":"50000"}},{"type":"Feature","geometry":{"type":"Point","coordinates":[43.3763511,36.2710491]},"properties":{"id":"osm-node-9101530177","place":"town","category":"town","population":"0"}},{"type":"Feature","geometry":{"type":"Point","coordinates":[43.20715404286577,36.200374249999996]},"properties":{"id":"osm-way-307514041","place":"town","category":"town","population":"0"}},{"type":"Feature","geometry":{"type":"Point","coordinates":[43.633564,36.2676498]},"properties":{"id":"osm-node-8510206109","place":"town","category":"town","population":"0"}},{"type":"Feature","geometry":{"type":"Point","coordinates":[43.3497725,36.4504561]},"properties":{"id":"osm-node-4378828619","place":"town","category":"town","population":"0"}},{"type":"Feature","geometry":{"type":"Point","coordinates":[43.3530626,36.6968676]},"properties":{"id":"osm-node-2488246719","place":"town","category":"town","population":"0"}},{"type":"Feature","geometry":{"type":"Point","coordinates":[43.335833,36.838056]},"properties":{"id":"osm-node-2488235822","place":"town","category":"town","population":"0"}},{"type":"Feature","geometry":{"type":"Point","coordinates":[43.2526094,36.7243784]},"properties":{"id":"osm-node-2488246722","place":"town","category":"town","population":"14000"}},{"type":"Feature","geometry":{"type":"Point","coordinates":[43.3730226,36.5718112]},"properties":{"id":"osm-node-2488233281","place":"town","category":"town","population":"0"}},{"type":"Feature","geometry":{"type":"Point","coordinates":[43.3458453107979,36.6884413]},"properties":{"id":"osm-way-964272084","place":"town","category":"town","population":"0"}},{"type":"Feature","geometry":{"type":"Point","coordinates":[43.6007207,36.6998278]},"properties":{"id":"osm-node-4779993129","place":"town","category":"town","population":"0"}},{"type":"Feature","geometry":{"type":"Point","coordinates":[43.4103747,36.6469647]},"properties":{"id":"osm-node-12135971914","place":"town","category":"town","population":"0"}},{"type":"Feature","geometry":{"type":"Point","coordinates":[43.5271085,36.6403095]},"properties":{"id":"osm-node-1438217072","place":"town","category":"town","population":"0"}},{"type":"Feature","geometry":{"type":"Point","coordinates":[43.5214882,36.5909704]},"properties":{"id":"osm-node-1438216966","place":"town","category":"town","population":"0"}},{"type":"Feature","geometry":{"type":"Point","coordinates":[43.88038,36.73359]},"properties":{"id":"geonames-445694","place":"city","category":"city","population":"105370"}},{"type":"Feature","geometry":{"type":"Point","coordinates":[43.89428,36.76038]},"properties":{"id":"geonames-98822","place":"city","category":"city","population":"23000"}},{"type":"Feature","geometry":{"type":"Point","coordinates":[43.8748927,36.7304865]},"properties":{"id":"osm-node-599171922","place":"town","category":"town","population":"68100"}},{"type":"Feature","geometry":{"type":"Point","coordinates":[44.018103,36.7292164]},"properties":{"id":"osm-node-2488259403","place":"town","category":"town","population":"3000"}},{"type":"Feature","geometry":{"type":"Point","coordinates":[43.5889075,36.5026998]},"properties":{"id":"osm-node-1418004700","place":"town","category":"town","population":"115000"}},{"type":"Feature","geometry":{"type":"Point","coordinates":[43.7287307,36.4762144]},"properties":{"id":"osm-node-7461393054","place":"town","category":"town","population":"0"}},{"type":"Feature","geometry":{"type":"Point","coordinates":[43.986556,36.7986354]},"properties":{"id":"osm-node-2488259513","place":"town","category":"town","population":"0"}},{"type":"Feature","geometry":{"type":"Point","coordinates":[43.702024,36.625098]},"properties":{"id":"osm-node-2488232946","place":"town","category":"town","population":"0"}},{"type":"Feature","geometry":{"type":"Point","coordinates":[43.8086485,36.655529]},"properties":{"id":"osm-node-9520444085","place":"town","category":"town","population":"0"}},{"type":"Feature","geometry":{"type":"Point","coordinates":[43.7299152,36.7397892]},"properties":{"id":"osm-node-13759733486","place":"town","category":"town","population":"150000"}},{"type":"Feature","geometry":{"type":"Point","coordinates":[41.8714426,36.2432722]},"properties":{"id":"osm-node-13716284126","place":"town","category":"town","population":"0"}},{"type":"Feature","geometry":{"type":"Point","coordinates":[41.8075455880211,36.48954055]},"properties":{"id":"osm-way-293058067","place":"town","category":"town","population":"0"}},{"type":"Feature","geometry":{"type":"Point","coordinates":[42.0316514,36.1592007]},"properties":{"id":"osm-node-4407171049","place":"town","category":"town","population":"0"}},{"type":"Feature","geometry":{"type":"Point","coordinates":[41.9542204,36.2697673]},"properties":{"id":"osm-node-13715701281","place":"town","category":"town","population":"0"}},{"type":"Feature","geometry":{"type":"Point","coordinates":[41.6247511,36.4659033]},"properties":{"id":"osm-node-4802479745","place":"town","category":"town","population":"0"}},{"type":"Feature","geometry":{"type":"Point","coordinates":[42.01809387304739,36.4770723]},"properties":{"id":"osm-way-293058060","place":"town","category":"town","population":"0"}},{"type":"Feature","geometry":{"type":"Point","coordinates":[41.7054986,36.4636235]},"properties":{"id":"osm-node-4802479470","place":"town","category":"town","population":"0"}},{"type":"Feature","geometry":{"type":"Point","coordinates":[41.8598585,36.3192729]},"properties":{"id":"osm-node-4855911802","place":"town","category":"town","population":"88023"}},{"type":"Feature","geometry":{"type":"Point","coordinates":[41.7444898,36.4754219]},"properties":{"id":"osm-node-8514746073","place":"town","category":"town","population":"0"}},{"type":"Feature","geometry":{"type":"Point","coordinates":[42.44806,36.37913]},"properties":{"id":"geonames-90393","place":"city","category":"city","population":"0"}},{"type":"Feature","geometry":{"type":"Point","coordinates":[42.4434793,36.3740434]},"properties":{"id":"osm-node-6007351271","place":"city","category":"city","population":"0"}},{"type":"Feature","geometry":{"type":"Point","coordinates":[42.4193365,36.4872824]},"properties":{"id":"osm-node-4589595501","place":"town","category":"town","population":"0"}},{"type":"Feature","geometry":{"type":"Point","coordinates":[42.6088434,36.6637088]},"properties":{"id":"osm-node-10113400929","place":"town","category":"town","population":"0"}},{"type":"Feature","geometry":{"type":"Point","coordinates":[42.396857,36.680373]},"properties":{"id":"osm-node-2488241410","place":"town","category":"town","population":"0"}},{"type":"Feature","geometry":{"type":"Point","coordinates":[42.0931036,36.8049851]},"properties":{"id":"osm-node-9935403393","place":"town","category":"town","population":"0"}},{"type":"Feature","geometry":{"type":"Point","coordinates":[42.84525608706264,36.615817449999994]},"properties":{"id":"osm-way-4597612","place":"town","category":"town","population":"0"}},{"type":"Feature","geometry":{"type":"Point","coordinates":[42.9644613,36.4147059]},"properties":{"id":"osm-node-12827767155","place":"town","category":"town","population":"0"}},{"type":"Feature","geometry":{"type":"Point","coordinates":[43.1070542,36.6013272]},"properties":{"id":"osm-node-2488247394","place":"town","category":"town","population":"0"}},{"type":"Feature","geometry":{"type":"Point","coordinates":[43.1205735,36.4903239]},"properties":{"id":"osm-node-1972159484","place":"town","category":"town","population":"40000"}},{"type":"Feature","geometry":{"type":"Point","coordinates":[43.097405,36.734772]},"properties":{"id":"osm-node-2480179007","place":"town","category":"town","population":"15000"}},{"type":"Feature","geometry":{"type":"Point","coordinates":[42.7592025,36.5336533]},"properties":{"id":"osm-node-11549412040","place":"town","category":"town","population":"0"}},{"type":"Feature","geometry":{"type":"Point","coordinates":[44.5835396,34.7254333]},"properties":{"id":"osm-node-599171145","place":"town","category":"town","population":"26000"}},{"type":"Feature","geometry":{"type":"Point","coordinates":[44.6282661,34.891501]},"properties":{"id":"osm-node-599170262","place":"town","category":"town","population":"0"}},{"type":"Feature","geometry":{"type":"Point","coordinates":[44.8542569,34.8787388]},"properties":{"id":"osm-node-7396905624","place":"town","category":"town","population":"0"}},{"type":"Feature","geometry":{"type":"Point","coordinates":[44.6667158,34.7951162]},"properties":{"id":"osm-node-9662831899","place":"town","category":"town","population":"0"}},{"type":"Feature","geometry":{"type":"Point","coordinates":[45.4425963,35.5570501]},"properties":{"id":"osm-node-663060430","place":"city","category":"city","population":"823199"}},{"type":"Feature","geometry":{"type":"Point","coordinates":[45.175034,35.5819984]},"properties":{"id":"osm-node-10316862232","place":"town","category":"town","population":"0"}},{"type":"Feature","geometry":{"type":"Point","coordinates":[45.136861,35.594704]},"properties":{"id":"osm-node-2488305292","place":"town","category":"town","population":"0"}},{"type":"Feature","geometry":{"type":"Point","coordinates":[45.066405,35.6497344]},"properties":{"id":"osm-node-2488283530","place":"town","category":"town","population":"0"}},{"type":"Feature","geometry":{"type":"Point","coordinates":[45.34942,35.557197]},"properties":{"id":"osm-node-2488303538","place":"town","category":"town","population":"0"}},{"type":"Feature","geometry":{"type":"Point","coordinates":[45.2282003,35.5957576]},"properties":{"id":"osm-node-2488303568","place":"town","category":"town","population":"0"}},{"type":"Feature","geometry":{"type":"Point","coordinates":[45.668775,35.3147216]},"properties":{"id":"osm-node-2489390355","place":"town","category":"town","population":"0"}},{"type":"Feature","geometry":{"type":"Point","coordinates":[45.5015658,35.2173015]},"properties":{"id":"osm-node-2488606499","place":"town","category":"town","population":"0"}},{"type":"Feature","geometry":{"type":"Point","coordinates":[45.6382656,35.3434394]},"properties":{"id":"osm-node-7919406589","place":"town","category":"town","population":"0"}},{"type":"Feature","geometry":{"type":"Point","coordinates":[45.5842675,35.4268878]},"properties":{"id":"osm-node-2488285711","place":"town","category":"town","population":"0"}},{"type":"Feature","geometry":{"type":"Point","coordinates":[45.391495,35.3098745]},"properties":{"id":"osm-node-2488607945","place":"town","category":"town","population":"0"}},{"type":"Feature","geometry":{"type":"Point","coordinates":[44.8984883,35.7486987]},"properties":{"id":"osm-node-2488281480","place":"town","category":"town","population":"0"}},{"type":"Feature","geometry":{"type":"Point","coordinates":[44.7994563,35.3494372]},"properties":{"id":"osm-node-8069531797","place":"town","category":"town","population":"0"}},{"type":"Feature","geometry":{"type":"Point","coordinates":[44.9597486,35.6258159]},"properties":{"id":"osm-node-2488281697","place":"town","category":"town","population":"0"}},{"type":"Feature","geometry":{"type":"Point","coordinates":[45.1007792,35.0232217]},"properties":{"id":"osm-node-7480351298","place":"town","category":"town","population":"0"}},{"type":"Feature","geometry":{"type":"Point","coordinates":[45.1797741,35.2855148]},"properties":{"id":"osm-node-7195166472","place":"town","category":"town","population":"0"}},{"type":"Feature","geometry":{"type":"Point","coordinates":[44.8456819,35.50741]},"properties":{"id":"osm-node-7195151626","place":"town","category":"town","population":"0"}},{"type":"Feature","geometry":{"type":"Point","coordinates":[44.8917028,35.1969722]},"properties":{"id":"osm-node-2160538174","place":"town","category":"town","population":"0"}},{"type":"Feature","geometry":{"type":"Point","coordinates":[44.8271913,35.5311005]},"properties":{"id":"osm-node-248441616","place":"town","category":"town","population":"0"}},{"type":"Feature","geometry":{"type":"Point","coordinates":[45.614026,35.174979]},"properties":{"id":"osm-node-2489389322","place":"town","category":"town","population":"0"}},{"type":"Feature","geometry":{"type":"Point","coordinates":[45.6829264,35.1153052]},"properties":{"id":"osm-node-2489389602","place":"town","category":"town","population":"85000"}},{"type":"Feature","geometry":{"type":"Point","coordinates":[45.68653831333231,35.32025885]},"properties":{"id":"osm-way-263782377","place":"town","category":"town","population":"0"}},{"type":"Feature","geometry":{"type":"Point","coordinates":[45.6901328,35.3211723]},"properties":{"id":"osm-node-2694351421","place":"town","category":"town","population":"0"}},{"type":"Feature","geometry":{"type":"Point","coordinates":[44.7758179,36.1295633]},"properties":{"id":"osm-node-2488272963","place":"town","category":"town","population":"0"}},{"type":"Feature","geometry":{"type":"Point","coordinates":[44.8381723,36.0200157]},"properties":{"id":"osm-node-2488273545","place":"town","category":"town","population":"0"}},{"type":"Feature","geometry":{"type":"Point","coordinates":[44.962935,35.930643]},"properties":{"id":"osm-node-2488279815","place":"town","category":"town","population":"0"}},{"type":"Feature","geometry":{"type":"Point","coordinates":[45.1033419,35.8616544]},"properties":{"id":"osm-node-2488318167","place":"town","category":"town","population":"0"}},{"type":"Feature","geometry":{"type":"Point","coordinates":[45.1438616,35.7317627]},"properties":{"id":"osm-node-4382514783","place":"town","category":"town","population":"0"}},{"type":"Feature","geometry":{"type":"Point","coordinates":[45.9873683,35.1792062]},"properties":{"id":"osm-node-598253294","place":"city","category":"city","population":"145700"}},{"type":"Feature","geometry":{"type":"Point","coordinates":[46.12064,35.2308274]},"properties":{"id":"osm-node-7369662108","place":"town","category":"town","population":"0"}},{"type":"Feature","geometry":{"type":"Point","coordinates":[46.186111,35.199444]},"properties":{"id":"osm-node-2480123639","place":"town","category":"town","population":"0"}},{"type":"Feature","geometry":{"type":"Point","coordinates":[46.0359366,35.2986266]},"properties":{"id":"osm-node-2267760414","place":"town","category":"town","population":"0"}},{"type":"Feature","geometry":{"type":"Point","coordinates":[45.9399393,35.2541654]},"properties":{"id":"osm-node-2267760082","place":"town","category":"town","population":"0"}},{"type":"Feature","geometry":{"type":"Point","coordinates":[45.8668558,35.3528908]},"properties":{"id":"osm-node-2480128285","place":"town","category":"town","population":"0"}},{"type":"Feature","geometry":{"type":"Point","coordinates":[45.7970561,34.9798057]},"properties":{"id":"osm-node-2488610837","place":"town","category":"town","population":"0"}},{"type":"Feature","geometry":{"type":"Point","coordinates":[45.3176622,34.6312629]},"properties":{"id":"osm-node-599486131","place":"city","category":"city","population":"250000"}},{"type":"Feature","geometry":{"type":"Point","coordinates":[45.5084793,34.8246861]},"properties":{"id":"osm-node-2489367814","place":"town","category":"town","population":"0"}},{"type":"Feature","geometry":{"type":"Point","coordinates":[45.4599108,35.0192688]},"properties":{"id":"osm-node-2489369255","place":"town","category":"town","population":"0"}},{"type":"Feature","geometry":{"type":"Point","coordinates":[45.6204974,34.9188967]},"properties":{"id":"osm-node-7373023563","place":"town","category":"town","population":"0"}},{"type":"Feature","geometry":{"type":"Point","coordinates":[45.2352067,34.6610131]},"properties":{"id":"osm-node-1671541862","place":"town","category":"town","population":"0"}},{"type":"Feature","geometry":{"type":"Point","coordinates":[45.9488452,35.6222075]},"properties":{"id":"osm-node-598456956","place":"town","category":"town","population":"0"}},{"type":"Feature","geometry":{"type":"Point","coordinates":[45.9505891,35.7232751]},"properties":{"id":"osm-node-2488143057","place":"town","category":"town","population":"0"}},{"type":"Feature","geometry":{"type":"Point","coordinates":[45.2847098,36.0660199]},"properties":{"id":"osm-node-2488309544","place":"town","category":"town","population":"0"}},{"type":"Feature","geometry":{"type":"Point","coordinates":[45.0057164,36.2438633]},"properties":{"id":"osm-node-2488314261","place":"town","category":"town","population":"0"}},{"type":"Feature","geometry":{"type":"Point","coordinates":[45.124141,36.180876]},"properties":{"id":"osm-node-2488312897","place":"town","category":"town","population":"140836"}},{"type":"Feature","geometry":{"type":"Point","coordinates":[45.0673834,36.2230969]},"properties":{"id":"osm-node-2488312905","place":"town","category":"town","population":"0"}},{"type":"Feature","geometry":{"type":"Point","coordinates":[45.2825054,36.1243588]},"properties":{"id":"osm-node-2488309543","place":"town","category":"town","population":"0"}},{"type":"Feature","geometry":{"type":"Point","coordinates":[45.2588094,36.2090201]},"properties":{"id":"osm-node-2488312772","place":"town","category":"town","population":"0"}},{"type":"Feature","geometry":{"type":"Point","coordinates":[45.047833,36.066389]},"properties":{"id":"osm-node-2488317384","place":"town","category":"town","population":"0"}},{"type":"Feature","geometry":{"type":"Point","coordinates":[44.792163,36.2348756]},"properties":{"id":"osm-node-6205753608","place":"town","category":"town","population":"70000"}},{"type":"Feature","geometry":{"type":"Point","coordinates":[44.7506798,36.277097]},"properties":{"id":"osm-node-2488272997","place":"town","category":"town","population":"0"}},{"type":"Feature","geometry":{"type":"Point","coordinates":[44.823302,36.2866643]},"properties":{"id":"osm-node-2488273504","place":"town","category":"town","population":"0"}},{"type":"Feature","geometry":{"type":"Point","coordinates":[44.7063233,36.2960728]},"properties":{"id":"osm-node-7347374479","place":"town","category":"town","population":"0"}},{"type":"Feature","geometry":{"type":"Point","coordinates":[44.8270687,36.2115135]},"properties":{"id":"osm-node-2488273492","place":"town","category":"town","population":"0"}},{"type":"Feature","geometry":{"type":"Point","coordinates":[44.8827887,36.2565246]},"properties":{"id":"osm-node-598459803","place":"town","category":"town","population":"130000"}},{"type":"Feature","geometry":{"type":"Point","coordinates":[45.5826601,35.8890685]},"properties":{"id":"osm-node-6297489988","place":"town","category":"town","population":"0"}},{"type":"Feature","geometry":{"type":"Point","coordinates":[45.6949496,35.5449374]},"properties":{"id":"osm-node-2488151198","place":"town","category":"town","population":"0"}},{"type":"Feature","geometry":{"type":"Point","coordinates":[45.6898494,35.6793319]},"properties":{"id":"osm-node-2488153032","place":"town","category":"town","population":"0"}},{"type":"Feature","geometry":{"type":"Point","coordinates":[45.5157987,35.6358744]},"properties":{"id":"osm-node-2488290818","place":"town","category":"town","population":"0"}},{"type":"Feature","geometry":{"type":"Point","coordinates":[45.4141144,35.9021869]},"properties":{"id":"osm-node-2488293575","place":"town","category":"town","population":"0"}},{"type":"Feature","geometry":{"type":"Point","coordinates":[45.854405,35.5768818]},"properties":{"id":"osm-node-2488140124","place":"town","category":"town","population":"0"}},{"type":"Feature","geometry":{"type":"Point","coordinates":[45.5702447,35.7175666]},"properties":{"id":"osm-node-7373252128","place":"town","category":"town","population":"0"}},{"type":"Feature","geometry":{"type":"Point","coordinates":[45.3524315,35.7984421]},"properties":{"id":"osm-node-2488317520","place":"town","category":"town","population":"0"}}]}
