{"type":"FeatureCollection","features":[{"type":"Feature","geometry":{"type":"Point","coordinates":[44.758183053182584,35.34153184599998]},"properties":{"id":"southern-kurdistan","level":"region","name_ku":"باشووری کوردستان","name_ar":"كردستان الجنوبية","name_en":"Southern Kurdistan","source":"NAV KURD operational label anchor","aliases_ku":[],"aliases_ar":[],"aliases_en":[],"name_display":"باشووری کوردستان","name":"باشووری کوردستان","data_release":"2026-07-22-nav-kurd-systematic-dedupe-2027","language_policy":"verified-kurdish-or-source-original","last_reviewed":"2026-09-06","search_key_ku":"باشووری کوردستان | شوێن | جمجمال | سلێمانی","search_key_ar":"كردستان الجنوبية | مكان | جمجمال | السليمانية","search_key_en":"Southern Kurdistan | Place | Chamchamal | Sulaymaniyah Governorate","search_key":"باشووری کوردستان | شوێن | جمجمال | سلێمانی | كردستان الجنوبية | مكان | جمجمال | السليمانية | Southern Kurdistan | Place | Chamchamal | Sulaymaniyah Governorate","admin_pcode":"IQG06Q02","admin_district_ku":"جمجمال","admin_governorate_ku":"سلێمانی","admin_district_ar":"جمجمال","admin_governorate_ar":"السليمانية","admin_district_en":"Chamchamal","admin_governorate_en":"Sulaymaniyah Governorate"}},{"type":"Feature","geometry":{"type":"Point","coordinates":[45.37686875525962,35.531987867]},"properties":{"id":"label-alsulaymaniyah","level":"governorate","name_ku":"سلێمانی","name_ar":"السليمانية","name_en":"Sulaymaniyah Governorate","source":"Iraq COD-AB operational label anchor","aliases_ku":[],"aliases_ar":[],"aliases_en":[],"name_display":"سلێمانی","name":"سلێمانی","data_release":"2026-07-22-nav-kurd-systematic-dedupe-2027","language_policy":"verified-kurdish-or-source-original","last_reviewed":"2026-09-06","search_key_ku":"سلێمانی | شوێن | السليمانية","search_key_ar":"السليمانية | مكان","search_key_en":"Sulaymaniyah Governorate | Place | Al-Sulaymaniyah","search_key":"سلێمانی | شوێن | السليمانية | السليمانية | مكان | Sulaymaniyah Governorate | Place | Al-Sulaymaniyah","admin_pcode":"IQG06Q01","admin_district_ku":"السليمانية","admin_governorate_ku":"سلێمانی","admin_district_ar":"السليمانية","admin_governorate_ar":"السليمانية","admin_district_en":"Al-Sulaymaniyah","admin_governorate_en":"Sulaymaniyah Governorate"}},{"type":"Feature","geometry":{"type":"Point","coordinates":[45.24355806796997,34.20072880499998]},"properties":{"id":"label-diyala","level":"governorate","name_ku":"دیالە","name_ar":"ديالى","name_en":"Diyala Governorate","source":"Iraq COD-AB operational label anchor","aliases_ku":[],"aliases_ar":[],"aliases_en":[],"name_display":"دیالە","name":"دیالە","data_release":"2026-07-22-nav-kurd-systematic-dedupe-2027","language_policy":"verified-kurdish-or-source-original","last_reviewed":"2026-09-06","search_key_ku":"دیالە | شوێن | خانەقین","search_key_ar":"ديالى | مكان | خانقين","search_key_en":"Diyala Governorate | Place | Khanaqin","search_key":"دیالە | شوێن | خانەقین | ديالى | مكان | خانقين | Diyala Governorate | Place | Khanaqin","admin_pcode":"IQG10Q05","admin_district_ku":"خانەقین","admin_governorate_ku":"دیالە","admin_district_ar":"خانقين","admin_governorate_ar":"ديالى","admin_district_en":"Khanaqin","admin_governorate_en":"Diyala Governorate"}},{"type":"Feature","geometry":{"type":"Point","coordinates":[43.13820289236098,37.04568612100002]},"properties":{"id":"label-duhok","level":"governorate","name_ku":"دهۆک","name_ar":"دهوك","name_en":"Duhok Governorate","source":"Iraq COD-AB operational label anchor","aliases_ku":[],"aliases_ar":[],"aliases_en":[],"name_display":"دهۆک","name":"دهۆک","data_release":"2026-07-22-nav-kurd-systematic-dedupe-2027","language_policy":"verified-kurdish-or-source-original","last_reviewed":"2026-09-06","search_key_ku":"دهۆک | شوێن","search_key_ar":"دهوك | مكان","search_key_en":"Duhok Governorate | Place | Duhok","search_key":"دهۆک | شوێن | دهوك | مكان | Duhok Governorate | Place | Duhok","admin_pcode":"IQG09Q02","admin_district_ku":"دهوك","admin_governorate_ku":"دهۆک","admin_district_ar":"دهوك","admin_governorate_ar":"دهوك","admin_district_en":"Duhok","admin_governorate_en":"Duhok Governorate"}},{"type":"Feature","geometry":{"type":"Point","coordinates":[44.21026857819534,36.379059786]},"properties":{"id":"label-erbil","level":"governorate","name_ku":"هەولێر","name_ar":"أربيل","name_en":"Erbil Governorate","source":"Iraq COD-AB operational label anchor","aliases_ku":[],"aliases_ar":[],"aliases_en":[],"name_display":"هەولێر","name":"هەولێر","data_release":"2026-07-22-nav-kurd-systematic-dedupe-2027","language_policy":"verified-kurdish-or-source-original","last_reviewed":"2026-09-06","search_key_ku":"هەولێر | شوێن | شقلاوة","search_key_ar":"أربيل | مكان | شقلاوة","search_key_en":"Erbil Governorate | Place | Shaqlawa","search_key":"هەولێر | شوێن | شقلاوة | أربيل | مكان | شقلاوة | Erbil Governorate | Place | Shaqlawa","admin_pcode":"IQG11Q06","admin_district_ku":"شقلاوة","admin_governorate_ku":"هەولێر","admin_district_ar":"شقلاوة","admin_governorate_ar":"اربيل","admin_district_en":"Shaqlawa","admin_governorate_en":"Erbil Governorate"}},{"type":"Feature","geometry":{"type":"Point","coordinates":[44.0611280131224,35.28780754099998]},"properties":{"id":"label-kirkuk","level":"governorate","name_ku":"کەرکووک","name_ar":"كركوك","name_en":"Kirkuk Governorate","source":"Iraq COD-AB operational label anchor","aliases_ku":[],"aliases_ar":[],"aliases_en":[],"name_ku_status":"verified-reviewed","name_ku_source":"kirkuk-verified-name-corrections","name_ku_match":"exact","name_display":"کەرکووک","name":"کەرکووک","data_release":"2026-07-22-nav-kurd-systematic-dedupe-2027","language_policy":"verified-kurdish-or-source-original","last_reviewed":"2026-09-06","search_key_ku":"کەرکووک | شوێن | حەویجە","search_key_ar":"كركوك | مكان | الحويجة","search_key_en":"Kirkuk Governorate | Place | Hawija","search_key":"کەرکووک | شوێن | حەویجە | كركوك | مكان | الحويجة | Kirkuk Governorate | Place | Hawija","admin_pcode":"IQG13Q01","admin_district_ku":"حەویجە","admin_governorate_ku":"کەرکووک","admin_district_ar":"الحويجة","admin_governorate_ar":"كركوك","admin_district_en":"Hawija","admin_governorate_en":"Kirkuk Governorate"}},{"type":"Feature","geometry":{"type":"Point","coordinates":[43.33231191212721,36.51295940600002]},"properties":{"id":"label-ninewa","level":"governorate","name_ku":"نەینەوا","name_ar":"نينوى","name_en":"Nineveh Governorate","source":"Iraq COD-AB operational label anchor","aliases_ku":[],"aliases_ar":[],"aliases_en":[],"name_display":"نەینەوا","name":"نەینەوا","data_release":"2026-07-22-nav-kurd-systematic-dedupe-2027","language_policy":"verified-kurdish-or-source-original","last_reviewed":"2026-09-06","search_key_ku":"نەینەوا | شوێن | باشیک","search_key_ar":"نينوى | مكان | بعشيقة","search_key_en":"Nineveh Governorate | Place | Bashiqa","search_key":"نەینەوا | شوێن | باشیک | نينوى | مكان | بعشيقة | Nineveh Governorate | Place | Bashiqa","admin_pcode":"IQG15Q05N03","admin_district_ku":"باشیک","admin_governorate_ku":"نەینەوا","admin_district_ar":"بعشيقة","admin_governorate_ar":"نينوى","admin_district_en":"Bashiqa","admin_governorate_en":"Nineveh Governorate"}},{"type":"Feature","geometry":{"type":"Point","coordinates":[44.659475069613926,34.82482712149999]},"properties":{"id":"label-salahaldin","level":"governorate","name_ku":"سەڵاحەدین","name_ar":"صلاح الدين","name_en":"Salah al-Din Governorate","source":"Iraq COD-AB operational label anchor","aliases_ku":[],"aliases_ar":[],"aliases_en":[],"name_display":"سەڵاحەدین","name":"سەڵاحەدین","data_release":"2026-07-22-nav-kurd-systematic-dedupe-2027","language_policy":"verified-kurdish-or-source-original","last_reviewed":"2026-09-06","search_key_ku":"سەڵاحەدین | شوێن | دووزخورماتوو","search_key_ar":"صلاح الدين | مكان | طوز خورماتو","search_key_en":"Salah al-Din Governorate | Place | Tooz Khurmato","search_key":"سەڵاحەدین | شوێن | دووزخورماتوو | صلاح الدين | مكان | طوز خورماتو | Salah al-Din Governorate | Place | Tooz Khurmato","admin_pcode":"IQG16Q07","admin_district_ku":"دووزخورماتوو","admin_governorate_ku":"سەڵاحەدین","admin_district_ar":"طوز خورماتو","admin_governorate_ar":"صلاح الدين","admin_district_en":"Tooz Khurmato","admin_governorate_en":"Salah al-Din Governorate"}},{"type":"Feature","geometry":{"type":"Point","coordinates":[46.021887509595125,35.187200851]},"properties":{"id":"label-halabja","level":"governorate","name_ku":"هەڵەبجە","name_ar":"حلبجة","name_en":"Halabja Governorate","source":"Curated public label over Iraq COD-AB Halabcha district geometry","aliases_ku":[],"aliases_ar":[],"aliases_en":[],"name_display":"هەڵەبجە","name":"هەڵەبجە","data_release":"2026-07-22-nav-kurd-systematic-dedupe-2027","language_policy":"verified-kurdish-or-source-original","last_reviewed":"2026-09-06","search_key_ku":"هەڵەبجە | شوێن | حلبجة | سلێمانی","search_key_ar":"حلبجة | مكان | السليمانية","search_key_en":"Halabja Governorate | Place | Halabcha | Sulaymaniyah Governorate","search_key":"هەڵەبجە | شوێن | حلبجة | سلێمانی | حلبجة | مكان | السليمانية | Halabja Governorate | Place | Halabcha | Sulaymaniyah Governorate","admin_pcode":"IQG06Q05","admin_district_ku":"حلبجة","admin_governorate_ku":"سلێمانی","admin_district_ar":"حلبجة","admin_governorate_ar":"السليمانية","admin_district_en":"Halabcha","admin_governorate_en":"Sulaymaniyah Governorate"}}],"version":"2026-07-22-nav-kurd-systematic-dedupe-2027"}
