{"type":"FeatureCollection","name":"NAV KURD reviewed POI corrections","version":"2026-07-22-nav-kurd-systematic-dedupe-2027","attribution":"NAV KURD reviewed community corrections · © OpenStreetMap contributors","policy":"Targeted, coordinate-matched corrections only. Replaced basemap identities are hidden at runtime; unrelated POIs and geometry remain unchanged.","features":[{"type":"Feature","geometry":{"type":"Point","coordinates":[46.0350843,35.2982259]},"properties":{"id":"reviewed-osm-way-1340868390-muslim","replaces_source_id":"osm-way-1340868390-muslim","osm_id":"1340868390","entity_kind":"way","fclass":"muslim","category":"muslim","name":"مزگەوتی ئیمام بوخاری","name_ku":"مزگەوتی ئیمام بوخاری","name_ar":"مزگەوتی ئیمام بوخاری","name_en":"مزگەوتی ئیمام بوخاری","source":"NAV KURD coordinate-matched community correction for OpenStreetMap way 1340868390","review_status":"community-reported-coordinate-matched","review_date":"2026-07-17","evidence_scope":"User-provided screenshot and exact coordinate; only way 1340868390 is replaced. Nearby way 1341014524 remains Imam Muslim.","language_policy":"verified-kurdish-or-source-original","aliases_ku":[],"aliases_ar":[],"aliases_en":[],"name_ar_status":"source-original-fallback","name_en_status":"source-original-fallback","name_display":"مزگەوتی ئیمام بوخاری","data_release":"2026-07-22-nav-kurd-systematic-dedupe-2027","last_reviewed":"2026-09-06","search_key_ku":"مزگەوتی ئیمام بوخاری | muslim | حلبجة | سلێمانی","search_key_ar":"مزگەوتی ئیمام بوخاری | muslim | حلبجة | السليمانية","search_key_en":"مزگەوتی ئیمام بوخاری | muslim | Halabcha | Sulaymaniyah Governorate","search_key":"مزگەوتی ئیمام بوخاری | muslim | حلبجة | سلێمانی | مزگەوتی ئیمام بوخاری | muslim | حلبجة | السليمانية | مزگەوتی ئیمام بوخاری | muslim | Halabcha | Sulaymaniyah Governorate","admin_pcode":"IQG06Q05","admin_district_ku":"حلبجة","admin_governorate_ku":"سلێمانی","admin_district_ar":"حلبجة","admin_governorate_ar":"السليمانية","admin_district_en":"Halabcha","admin_governorate_en":"Sulaymaniyah Governorate"}}]}
