{"type":"FeatureCollection","name":"NAV KURD source-backed security features","version":"2026-07-22-nav-kurd-systematic-dedupe-2027","attribution":"© OpenStreetMap contributors","policy":"Named source-backed checkpoint/security records only; generic and unnamed source records remain in the review quarantine.","features":[{"type":"Feature","geometry":{"type":"Point","coordinates":[42.917795,36.8367564]},"properties":{"id":"osm-security-node-7292362188","osm_id":"7292362188","osm_ids":"7292362188,7292362189","category":"border_crossing","name":"سيطرة ئالوكا","name_ku":"سيطرة ئالوكا","name_ar":"سيطرة ئالوكا","name_en":"Control police Aloka","aliases_ku":[],"aliases_ar":[],"aliases_en":[],"source":"OpenStreetMap exact checkpoint/security tags","source_date":"2026-07-13","last_reviewed":"2026-08-27","data_release":"2026-07-22-nav-kurd-systematic-dedupe-2027","language_policy":"verified-kurdish-or-source-original","barrier":"border_control","admin_district_ku":"سميل","admin_governorate_ku":"دهۆک","search_key_ku":"سيطرة ئالوكا | دەروازەی سنووری | سميل | دهۆک","admin_district_ar":"سميل","admin_governorate_ar":"دهوك","search_key_ar":"سيطرة ئالوكا | منفذ حدودي | سميل | دهوك","admin_district_en":"Sumail","admin_governorate_en":"Duhok Governorate","search_key_en":"Control police Aloka | Border crossing | Sumail | Duhok Governorate","name_ku_status":"source-original-fallback","name_display":"سيطرة ئالوكا","search_key":"سيطرة ئالوكا | دەروازەی سنووری | سميل | دهۆک | سيطرة ئالوكا | منفذ حدودي | سميل | دهوك | Control police Aloka | Border crossing | Sumail | Duhok Governorate","admin_pcode":"IQG09Q03","category_group":"border_route","category_ku":"دەروازەی سنووری","category_ar":"منفذ حدودي","category_en":"Border crossing","icon_id":"border_crossing"}},{"type":"Feature","geometry":{"type":"Point","coordinates":[42.6470941,37.0426149]},"properties":{"id":"osm-security-node-12468619983","osm_id":"12468619983","osm_ids":"12468619983,12468619984","category":"border_crossing","name":"سيطرة زاخو","name_ku":"سيطرة زاخو","name_ar":"سيطرة زاخو","name_en":"سيطرة زاخو","aliases_ku":[],"aliases_ar":[],"aliases_en":[],"source":"OpenStreetMap exact checkpoint/security tags","source_date":"2026-07-13","last_reviewed":"2026-08-27","data_release":"2026-07-22-nav-kurd-systematic-dedupe-2027","language_policy":"verified-kurdish-or-source-original","barrier":"border_control","admin_district_ku":"سميل","admin_governorate_ku":"دهۆک","search_key_ku":"سيطرة زاخو | دەروازەی سنووری | سميل | دهۆک","admin_district_ar":"سميل","admin_governorate_ar":"دهوك","search_key_ar":"سيطرة زاخو | منفذ حدودي | سميل | دهوك","admin_district_en":"Sumail","admin_governorate_en":"Duhok Governorate","search_key_en":"سيطرة زاخو | Border crossing | Sumail | Duhok Governorate","name_ku_status":"source-original-fallback","name_en_status":"source-original-fallback","name_display":"سيطرة زاخو","search_key":"سيطرة زاخو | دەروازەی سنووری | سميل | دهۆک | سيطرة زاخو | منفذ حدودي | سميل | دهوك | سيطرة زاخو | Border crossing | Sumail | Duhok Governorate","admin_pcode":"IQG09Q03","category_group":"border_route","category_ku":"دەروازەی سنووری","category_ar":"منفذ حدودي","category_en":"Border crossing","icon_id":"border_crossing"}},{"type":"Feature","geometry":{"type":"Point","coordinates":[44.6936414,36.1493828]},"properties":{"id":"osm-security-node-7844624862","osm_id":"7844624862","osm_ids":"7844624862","category":"military_checkpoint","name":"East Koya","name_ku":"East Koya","name_ar":"East Koya","name_en":"East Koya","aliases_ku":[],"aliases_ar":[],"aliases_en":[],"source":"OpenStreetMap exact checkpoint/security tags","source_date":"2026-07-13","last_reviewed":"2026-08-27","data_release":"2026-07-22-nav-kurd-systematic-dedupe-2027","language_policy":"verified-kurdish-or-source-original","military":"checkpoint","admin_district_ku":"دوكان","admin_governorate_ku":"سلێمانی","search_key_ku":"East Koya | چێکپۆینتی سەربازی | دوكان | سلێمانی","admin_district_ar":"دوكان","admin_governorate_ar":"السليمانية","search_key_ar":"East Koya | نقطة تفتيش عسكرية | دوكان | السليمانية","admin_district_en":"Dokan","admin_governorate_en":"Sulaymaniyah Governorate","search_key_en":"East Koya | Military checkpoint | Dokan | Sulaymaniyah Governorate","name_ku_status":"source-original-fallback","name_ar_status":"source-original-fallback","name_display":"East Koya","search_key":"East Koya | چێکپۆینتی سەربازی | دوكان | سلێمانی | East Koya | نقطة تفتيش عسكرية | دوكان | السليمانية | East Koya | Military checkpoint | Dokan | Sulaymaniyah Governorate","admin_pcode":"IQG06Q04","category_group":"emergency_security","category_ku":"چێکپۆینتی سەربازی","category_ar":"نقطة تفتيش عسكرية","category_en":"Military checkpoint","icon_id":"military_checkpoint"}},{"type":"Feature","geometry":{"type":"Point","coordinates":[44.5235657,36.2773024]},"properties":{"id":"osm-security-node-5447990723","osm_id":"5447990723","osm_ids":"5447990723","category":"military_checkpoint","name":"Hiran Checkpoint","name_ku":"Hiran Checkpoint","name_ar":"Hiran Checkpoint","name_en":"Hiran Checkpoint","aliases_ku":[],"aliases_ar":[],"aliases_en":[],"source":"OpenStreetMap exact checkpoint/security tags","source_date":"2026-07-13","last_reviewed":"2026-08-27","data_release":"2026-07-22-nav-kurd-systematic-dedupe-2027","language_policy":"verified-kurdish-or-source-original","military":"checkpoint","admin_district_ku":"شقلاوة","admin_governorate_ku":"هەولێر","search_key_ku":"Hiran Checkpoint | چێکپۆینتی سەربازی | شقلاوة | هەولێر","admin_district_ar":"شقلاوة","admin_governorate_ar":"اربيل","search_key_ar":"Hiran Checkpoint | نقطة تفتيش عسكرية | شقلاوة | اربيل","admin_district_en":"Shaqlawa","admin_governorate_en":"Erbil Governorate","search_key_en":"Hiran Checkpoint | Military checkpoint | Shaqlawa | Erbil Governorate","name_ku_status":"source-original-fallback","name_ar_status":"source-original-fallback","name_display":"Hiran Checkpoint","search_key":"Hiran Checkpoint | چێکپۆینتی سەربازی | شقلاوة | هەولێر | Hiran Checkpoint | نقطة تفتيش عسكرية | شقلاوة | اربيل | Hiran Checkpoint | Military checkpoint | Shaqlawa | Erbil Governorate","admin_pcode":"IQG11Q06","category_group":"emergency_security","category_ku":"چێکپۆینتی سەربازی","category_ar":"نقطة تفتيش عسكرية","category_en":"Military checkpoint","icon_id":"military_checkpoint"}},{"type":"Feature","geometry":{"type":"Point","coordinates":[43.6195248,35.7961009]},"properties":{"id":"osm-security-node-2138066388","osm_id":"2138066388","osm_ids":"2138066388,6550834890","category":"military_checkpoint","name":"Kurdistan's checkpoint","name_ku":"Kurdistan's checkpoint","name_ar":"Kurdistan's checkpoint","name_en":"Kurdistan's checkpoint","aliases_ku":[],"aliases_ar":[],"aliases_en":[],"source":"OpenStreetMap exact checkpoint/security tags","source_date":"2026-07-13","last_reviewed":"2026-08-27","data_release":"2026-07-22-nav-kurd-systematic-dedupe-2027","language_policy":"verified-kurdish-or-source-original","military":"checkpoint","admin_district_ku":"مخمور","admin_governorate_ku":"هەولێر","search_key_ku":"Kurdistan's checkpoint | چێکپۆینتی سەربازی | مخمور | هەولێر","admin_district_ar":"مخمور","admin_governorate_ar":"اربيل","search_key_ar":"Kurdistan's checkpoint | نقطة تفتيش عسكرية | مخمور | اربيل","admin_district_en":"Makhmour","admin_governorate_en":"Erbil Governorate","search_key_en":"Kurdistan's checkpoint | Military checkpoint | Makhmour | Erbil Governorate","name_ku_status":"source-original-fallback","name_ar_status":"source-original-fallback","name_display":"Kurdistan's checkpoint","search_key":"Kurdistan's checkpoint | چێکپۆینتی سەربازی | مخمور | هەولێر | Kurdistan's checkpoint | نقطة تفتيش عسكرية | مخمور | اربيل | Kurdistan's checkpoint | Military checkpoint | Makhmour | Erbil Governorate","admin_pcode":"IQG11Q04","category_group":"emergency_security","category_ku":"چێکپۆینتی سەربازی","category_ar":"نقطة تفتيش عسكرية","category_en":"Military checkpoint","icon_id":"military_checkpoint"}},{"type":"Feature","geometry":{"type":"Point","coordinates":[45.4102607,35.6327482]},"properties":{"id":"osm-security-node-4338528356","osm_id":"4338528356","osm_ids":"4338528356","category":"military_checkpoint","name":"Mergaban Branch","name_ku":"Mergaban Branch","name_ar":"Mergaban Branch","name_en":"Mergaban Branch","aliases_ku":[],"aliases_ar":[],"aliases_en":[],"source":"OpenStreetMap exact checkpoint/security tags","source_date":"2026-07-13","last_reviewed":"2026-08-27","data_release":"2026-07-22-nav-kurd-systematic-dedupe-2027","language_policy":"verified-kurdish-or-source-original","military":"checkpoint","admin_district_ku":"السليمانية","admin_governorate_ku":"سلێمانی","search_key_ku":"Mergaban Branch | چێکپۆینتی سەربازی | السليمانية | سلێمانی","admin_district_ar":"السليمانية","admin_governorate_ar":"السليمانية","search_key_ar":"Mergaban Branch | نقطة تفتيش عسكرية | السليمانية","admin_district_en":"Al-Sulaymaniyah","admin_governorate_en":"Sulaymaniyah Governorate","search_key_en":"Mergaban Branch | Military checkpoint | Al-Sulaymaniyah | Sulaymaniyah Governorate","name_ku_status":"source-original-fallback","name_ar_status":"source-original-fallback","name_display":"Mergaban Branch","search_key":"Mergaban Branch | چێکپۆینتی سەربازی | السليمانية | سلێمانی | Mergaban Branch | نقطة تفتيش عسكرية | السليمانية | Mergaban Branch | Military checkpoint | Al-Sulaymaniyah | Sulaymaniyah Governorate","admin_pcode":"IQG06Q01","category_group":"emergency_security","category_ku":"چێکپۆینتی سەربازی","category_ar":"نقطة تفتيش عسكرية","category_en":"Military checkpoint","icon_id":"military_checkpoint"}},{"type":"Feature","geometry":{"type":"Point","coordinates":[44.9826106,36.385093]},"properties":{"id":"osm-security-node-4423874631","osm_id":"4423874631","osm_ids":"4423874631","category":"military_checkpoint","name":"PKK Checkpoint","name_ku":"PKK Checkpoint","name_ar":"PKK Checkpoint","name_en":"PKK Checkpoint","aliases_ku":[],"aliases_ar":[],"aliases_en":[],"source":"OpenStreetMap exact checkpoint/security tags","source_date":"2026-07-13","last_reviewed":"2026-08-27","data_release":"2026-07-22-nav-kurd-systematic-dedupe-2027","language_policy":"verified-kurdish-or-source-original","military":"checkpoint","admin_district_ku":"بشدر","admin_governorate_ku":"سلێمانی","search_key_ku":"PKK Checkpoint | چێکپۆینتی سەربازی | بشدر | سلێمانی","admin_district_ar":"بشدر","admin_governorate_ar":"السليمانية","search_key_ar":"PKK Checkpoint | نقطة تفتيش عسكرية | بشدر | السليمانية","admin_district_en":"Pshdar","admin_governorate_en":"Sulaymaniyah Governorate","search_key_en":"PKK Checkpoint | Military checkpoint | Pshdar | Sulaymaniyah Governorate","name_ku_status":"source-original-fallback","name_ar_status":"source-original-fallback","name_display":"PKK Checkpoint","search_key":"PKK Checkpoint | چێکپۆینتی سەربازی | بشدر | سلێمانی | PKK Checkpoint | نقطة تفتيش عسكرية | بشدر | السليمانية | PKK Checkpoint | Military checkpoint | Pshdar | Sulaymaniyah Governorate","admin_pcode":"IQG06Q08","category_group":"emergency_security","category_ku":"چێکپۆینتی سەربازی","category_ar":"نقطة تفتيش عسكرية","category_en":"Military checkpoint","icon_id":"military_checkpoint"}},{"type":"Feature","geometry":{"type":"Point","coordinates":[44.439478,36.6288149]},"properties":{"id":"osm-security-node-599174753","osm_id":"599174753","osm_ids":"599174753","category":"military_checkpoint","name":"بازگهی گهلی عهلی بهگ","name_ku":"بازگهی گهلی عهلی بهگ","name_ar":"بازگهی گهلی عهلی بهگ","name_en":"بازگهی گهلی عهلی بهگ","aliases_ku":[],"aliases_ar":[],"aliases_en":[],"source":"OpenStreetMap exact checkpoint/security tags","source_date":"2026-07-13","last_reviewed":"2026-08-27","data_release":"2026-07-22-nav-kurd-systematic-dedupe-2027","language_policy":"verified-kurdish-or-source-original","military":"checkpoint","admin_district_ku":"راوندوز","admin_governorate_ku":"هەولێر","search_key_ku":"بازگهی گهلی عهلی بهگ | چێکپۆینتی سەربازی | راوندوز | هەولێر","admin_district_ar":"راوندوز","admin_governorate_ar":"اربيل","search_key_ar":"بازگهی گهلی عهلی بهگ | نقطة تفتيش عسكرية | راوندوز | اربيل","admin_district_en":"Rawanduz","admin_governorate_en":"Erbil Governorate","search_key_en":"بازگهی گهلی عهلی بهگ | Military checkpoint | Rawanduz | Erbil Governorate","name_ar_status":"source-original-fallback","name_en_status":"source-original-fallback","name_display":"بازگهی گهلی عهلی بهگ","search_key":"بازگهی گهلی عهلی بهگ | چێکپۆینتی سەربازی | راوندوز | هەولێر | بازگهی گهلی عهلی بهگ | نقطة تفتيش عسكرية | راوندوز | اربيل | بازگهی گهلی عهلی بهگ | Military checkpoint | Rawanduz | Erbil Governorate","admin_pcode":"IQG11Q05","category_group":"emergency_security","category_ku":"چێکپۆینتی سەربازی","category_ar":"نقطة تفتيش عسكرية","category_en":"Military checkpoint","icon_id":"military_checkpoint"}},{"type":"Feature","geometry":{"type":"Point","coordinates":[43.2511575,36.7519855]},"properties":{"id":"osm-security-node-4694444645","osm_id":"4694444645","osm_ids":"4694444645","category":"military_checkpoint","name":"بازگەها باعەدرێ","name_ku":"بازگەها باعەدرێ","name_ar":"سيطرة باعذرة","name_en":"بازگەها باعەدرێ","aliases_ku":[],"aliases_ar":[],"aliases_en":[],"source":"OpenStreetMap exact checkpoint/security tags","source_date":"2026-07-13","last_reviewed":"2026-08-27","data_release":"2026-07-22-nav-kurd-systematic-dedupe-2027","language_policy":"verified-kurdish-or-source-original","military":"checkpoint","admin_district_ku":"تەلکێف","admin_governorate_ku":"نەینەوا","search_key_ku":"بازگەها باعەدرێ | چێکپۆینتی سەربازی | تەلکێف | نەینەوا","admin_district_ar":"تلكيف","admin_governorate_ar":"نينوى","search_key_ar":"سيطرة باعذرة | نقطة تفتيش عسكرية | تلكيف | نينوى","admin_district_en":"Tilkaef","admin_governorate_en":"Nineveh Governorate","search_key_en":"بازگەها باعەدرێ | Military checkpoint | Tilkaef | Nineveh Governorate","name_en_status":"source-original-fallback","name_display":"بازگەها باعەدرێ","search_key":"بازگەها باعەدرێ | چێکپۆینتی سەربازی | تەلکێف | نەینەوا | سيطرة باعذرة | نقطة تفتيش عسكرية | تلكيف | نينوى | بازگەها باعەدرێ | Military checkpoint | Tilkaef | Nineveh Governorate","admin_pcode":"IQG15Q09","category_group":"emergency_security","category_ku":"چێکپۆینتی سەربازی","category_ar":"نقطة تفتيش عسكرية","category_en":"Military checkpoint","icon_id":"military_checkpoint"}},{"type":"Feature","geometry":{"type":"Point","coordinates":[44.9804799,36.2332909]},"properties":{"id":"osm-security-node-13784205048","osm_id":"13784205048","osm_ids":"13784205048,13784205049","category":"military_checkpoint","name":"بازگەی ئاسایشی بانوەقەل","name_ku":"بازگەی ئاسایشی بانوەقەل","name_ar":"سيطرة بانوقل","name_en":"بازگەی ئاسایشی بانوەقەل","aliases_ku":[],"aliases_ar":[],"aliases_en":[],"source":"OpenStreetMap exact checkpoint/security tags","source_date":"2026-07-13","last_reviewed":"2026-08-27","data_release":"2026-07-22-nav-kurd-systematic-dedupe-2027","language_policy":"verified-kurdish-or-source-original","military":"checkpoint","admin_district_ku":"بشدر","admin_governorate_ku":"سلێمانی","search_key_ku":"بازگەی ئاسایشی بانوەقەل | چێکپۆینتی سەربازی | بشدر | سلێمانی","admin_district_ar":"بشدر","admin_governorate_ar":"السليمانية","search_key_ar":"سيطرة بانوقل | نقطة تفتيش عسكرية | بشدر | السليمانية","admin_district_en":"Pshdar","admin_governorate_en":"Sulaymaniyah Governorate","search_key_en":"بازگەی ئاسایشی بانوەقەل | Military checkpoint | Pshdar | Sulaymaniyah Governorate","name_en_status":"source-original-fallback","name_display":"بازگەی ئاسایشی بانوەقەل","search_key":"بازگەی ئاسایشی بانوەقەل | چێکپۆینتی سەربازی | بشدر | سلێمانی | سيطرة بانوقل | نقطة تفتيش عسكرية | بشدر | السليمانية | بازگەی ئاسایشی بانوەقەل | Military checkpoint | Pshdar | Sulaymaniyah Governorate","admin_pcode":"IQG06Q08","category_group":"emergency_security","category_ku":"چێکپۆینتی سەربازی","category_ar":"نقطة تفتيش عسكرية","category_en":"Military checkpoint","icon_id":"military_checkpoint"}},{"type":"Feature","geometry":{"type":"Point","coordinates":[45.0209134,36.2875913]},"properties":{"id":"osm-security-node-12209143047","osm_id":"12209143047","osm_ids":"12209143047,12210807280","category":"military_checkpoint","name":"بازگەی ئاسایشی دەرووکۆتر","name_ku":"بازگەی ئاسایشی دەرووکۆتر","name_ar":"بازگەی ئاسایشی دەرووکۆتر","name_en":"بازگەی ئاسایشی دەرووکۆتر","aliases_ku":[],"aliases_ar":[],"aliases_en":[],"source":"OpenStreetMap exact checkpoint/security tags","source_date":"2026-07-13","last_reviewed":"2026-08-27","data_release":"2026-07-22-nav-kurd-systematic-dedupe-2027","language_policy":"verified-kurdish-or-source-original","military":"checkpoint","admin_district_ku":"بشدر","admin_governorate_ku":"سلێمانی","search_key_ku":"بازگەی ئاسایشی دەرووکۆتر | چێکپۆینتی سەربازی | بشدر | سلێمانی","admin_district_ar":"بشدر","admin_governorate_ar":"السليمانية","search_key_ar":"بازگەی ئاسایشی دەرووکۆتر | نقطة تفتيش عسكرية | بشدر | السليمانية","admin_district_en":"Pshdar","admin_governorate_en":"Sulaymaniyah Governorate","search_key_en":"بازگەی ئاسایشی دەرووکۆتر | Military checkpoint | Pshdar | Sulaymaniyah Governorate","name_ar_status":"source-original-fallback","name_en_status":"source-original-fallback","name_display":"بازگەی ئاسایشی دەرووکۆتر","search_key":"بازگەی ئاسایشی دەرووکۆتر | چێکپۆینتی سەربازی | بشدر | سلێمانی | بازگەی ئاسایشی دەرووکۆتر | نقطة تفتيش عسكرية | بشدر | السليمانية | بازگەی ئاسایشی دەرووکۆتر | Military checkpoint | Pshdar | Sulaymaniyah Governorate","admin_pcode":"IQG06Q08","category_group":"emergency_security","category_ku":"چێکپۆینتی سەربازی","category_ar":"نقطة تفتيش عسكرية","category_en":"Military checkpoint","icon_id":"military_checkpoint"}},{"type":"Feature","geometry":{"type":"Point","coordinates":[45.1186795,36.2765578]},"properties":{"id":"osm-security-node-5754068195","osm_id":"5754068195","osm_ids":"5754068195","category":"military_checkpoint","name":"بازگەی ئاسایشی سپێرۆ","name_ku":"بازگەی ئاسایشی سپێرۆ","name_ar":"بازگەی ئاسایشی سپێرۆ","name_en":"بازگەی ئاسایشی سپێرۆ","aliases_ku":[],"aliases_ar":[],"aliases_en":[],"source":"OpenStreetMap exact checkpoint/security tags","source_date":"2026-07-13","last_reviewed":"2026-08-27","data_release":"2026-07-22-nav-kurd-systematic-dedupe-2027","language_policy":"verified-kurdish-or-source-original","military":"checkpoint","admin_district_ku":"بشدر","admin_governorate_ku":"سلێمانی","search_key_ku":"بازگەی ئاسایشی سپێرۆ | چێکپۆینتی سەربازی | بشدر | سلێمانی","admin_district_ar":"بشدر","admin_governorate_ar":"السليمانية","search_key_ar":"بازگەی ئاسایشی سپێرۆ | نقطة تفتيش عسكرية | بشدر | السليمانية","admin_district_en":"Pshdar","admin_governorate_en":"Sulaymaniyah Governorate","search_key_en":"بازگەی ئاسایشی سپێرۆ | Military checkpoint | Pshdar | Sulaymaniyah Governorate","name_ar_status":"source-original-fallback","name_en_status":"source-original-fallback","name_display":"بازگەی ئاسایشی سپێرۆ","search_key":"بازگەی ئاسایشی سپێرۆ | چێکپۆینتی سەربازی | بشدر | سلێمانی | بازگەی ئاسایشی سپێرۆ | نقطة تفتيش عسكرية | بشدر | السليمانية | بازگەی ئاسایشی سپێرۆ | Military checkpoint | Pshdar | Sulaymaniyah Governorate","admin_pcode":"IQG06Q08","category_group":"emergency_security","category_ku":"چێکپۆینتی سەربازی","category_ar":"نقطة تفتيش عسكرية","category_en":"Military checkpoint","icon_id":"military_checkpoint"}},{"type":"Feature","geometry":{"type":"Point","coordinates":[44.9899479,36.2119509]},"properties":{"id":"osm-security-node-7292127508","osm_id":"7292127508","osm_ids":"7292127508","category":"military_checkpoint","name":"بازگەی ئاسایشی سەرسیان","name_ku":"بازگەی ئاسایشی سەرسیان","name_ar":"بازگەی ئاسایشی سەرسیان","name_en":"بازگەی ئاسایشی سەرسیان","aliases_ku":[],"aliases_ar":[],"aliases_en":[],"source":"OpenStreetMap exact checkpoint/security tags","source_date":"2026-07-13","last_reviewed":"2026-08-27","data_release":"2026-07-22-nav-kurd-systematic-dedupe-2027","language_policy":"verified-kurdish-or-source-original","military":"checkpoint","admin_district_ku":"بشدر","admin_governorate_ku":"سلێمانی","search_key_ku":"بازگەی ئاسایشی سەرسیان | چێکپۆینتی سەربازی | بشدر | سلێمانی","admin_district_ar":"بشدر","admin_governorate_ar":"السليمانية","search_key_ar":"بازگەی ئاسایشی سەرسیان | نقطة تفتيش عسكرية | بشدر | السليمانية","admin_district_en":"Pshdar","admin_governorate_en":"Sulaymaniyah Governorate","search_key_en":"بازگەی ئاسایشی سەرسیان | Military checkpoint | Pshdar | Sulaymaniyah Governorate","name_ar_status":"source-original-fallback","name_en_status":"source-original-fallback","name_display":"بازگەی ئاسایشی سەرسیان","search_key":"بازگەی ئاسایشی سەرسیان | چێکپۆینتی سەربازی | بشدر | سلێمانی | بازگەی ئاسایشی سەرسیان | نقطة تفتيش عسكرية | بشدر | السليمانية | بازگەی ئاسایشی سەرسیان | Military checkpoint | Pshdar | Sulaymaniyah Governorate","admin_pcode":"IQG06Q08","category_group":"emergency_security","category_ku":"چێکپۆینتی سەربازی","category_ar":"نقطة تفتيش عسكرية","category_en":"Military checkpoint","icon_id":"military_checkpoint"}},{"type":"Feature","geometry":{"type":"Point","coordinates":[44.7880484,36.3352519]},"properties":{"id":"osm-security-node-13937989295","osm_id":"13937989295","osm_ids":"13937989295","category":"military_checkpoint","name":"بازگەی ئاسایشی کانی بناو","name_ku":"بازگەی ئاسایشی کانی بناو","name_ar":"بازگەی ئاسایشی کانی بناو","name_en":"بازگەی ئاسایشی کانی بناو","aliases_ku":[],"aliases_ar":[],"aliases_en":[],"source":"OpenStreetMap exact checkpoint/security tags","source_date":"2026-07-13","last_reviewed":"2026-08-27","data_release":"2026-07-22-nav-kurd-systematic-dedupe-2027","language_policy":"verified-kurdish-or-source-original","military":"checkpoint","admin_district_ku":"رانية","admin_governorate_ku":"سلێمانی","search_key_ku":"بازگەی ئاسایشی کانی بناو | چێکپۆینتی سەربازی | رانية | سلێمانی","admin_district_ar":"رانية","admin_governorate_ar":"السليمانية","search_key_ar":"بازگەی ئاسایشی کانی بناو | نقطة تفتيش عسكرية | رانية | السليمانية","admin_district_en":"Rania","admin_governorate_en":"Sulaymaniyah Governorate","search_key_en":"بازگەی ئاسایشی کانی بناو | Military checkpoint | Rania | Sulaymaniyah Governorate","name_ar_status":"source-original-fallback","name_en_status":"source-original-fallback","name_display":"بازگەی ئاسایشی کانی بناو","search_key":"بازگەی ئاسایشی کانی بناو | چێکپۆینتی سەربازی | رانية | سلێمانی | بازگەی ئاسایشی کانی بناو | نقطة تفتيش عسكرية | رانية | السليمانية | بازگەی ئاسایشی کانی بناو | Military checkpoint | Rania | Sulaymaniyah Governorate","admin_pcode":"IQG06Q09","category_group":"emergency_security","category_ku":"چێکپۆینتی سەربازی","category_ar":"نقطة تفتيش عسكرية","category_en":"Military checkpoint","icon_id":"military_checkpoint"}},{"type":"Feature","geometry":{"type":"Point","coordinates":[44.7829264,35.5007136]},"properties":{"id":"osm-security-node-2324077901","osm_id":"2324077901","osm_ids":"2324077901,2324077907","category":"military_checkpoint","name":"بازگەی بانی مەقان","name_ku":"بازگەی بانی مەقان","name_ar":"بازگەی بانی مەقان","name_en":"بازگەی بانی مەقان","aliases_ku":[],"aliases_ar":[],"aliases_en":[],"source":"OpenStreetMap exact checkpoint/security tags","source_date":"2026-07-13","last_reviewed":"2026-08-27","data_release":"2026-07-22-nav-kurd-systematic-dedupe-2027","language_policy":"verified-kurdish-or-source-original","military":"checkpoint","admin_district_ku":"جمجمال","admin_governorate_ku":"سلێمانی","search_key_ku":"بازگەی بانی مەقان | چێکپۆینتی سەربازی | جمجمال | سلێمانی","admin_district_ar":"جمجمال","admin_governorate_ar":"السليمانية","search_key_ar":"بازگەی بانی مەقان | نقطة تفتيش عسكرية | جمجمال | السليمانية","admin_district_en":"Chamchamal","admin_governorate_en":"Sulaymaniyah Governorate","search_key_en":"بازگەی بانی مەقان | Military checkpoint | Chamchamal | Sulaymaniyah Governorate","name_ar_status":"source-original-fallback","name_en_status":"source-original-fallback","name_display":"بازگەی بانی مەقان","search_key":"بازگەی بانی مەقان | چێکپۆینتی سەربازی | جمجمال | سلێمانی | بازگەی بانی مەقان | نقطة تفتيش عسكرية | جمجمال | السليمانية | بازگەی بانی مەقان | Military checkpoint | Chamchamal | Sulaymaniyah Governorate","admin_pcode":"IQG06Q02","category_group":"emergency_security","category_ku":"چێکپۆینتی سەربازی","category_ar":"نقطة تفتيش عسكرية","category_en":"Military checkpoint","icon_id":"military_checkpoint"}},{"type":"Feature","geometry":{"type":"Point","coordinates":[45.1953757,35.4632633]},"properties":{"id":"osm-security-node-1894473436","osm_id":"1894473436","osm_ids":"1894473436","category":"military_checkpoint","name":"بازگەی دێلێژە","name_ku":"بازگەی دێلێژە","name_ar":"سيطرة ديليزة","name_en":"delejha checkpoint","aliases_ku":[],"aliases_ar":[],"aliases_en":[],"source":"OpenStreetMap exact checkpoint/security tags","source_date":"2026-07-13","last_reviewed":"2026-08-27","data_release":"2026-07-22-nav-kurd-systematic-dedupe-2027","language_policy":"verified-kurdish-or-source-original","military":"checkpoint","admin_district_ku":"السليمانية","admin_governorate_ku":"سلێمانی","search_key_ku":"بازگەی دێلێژە | چێکپۆینتی سەربازی | السليمانية | سلێمانی","admin_district_ar":"السليمانية","admin_governorate_ar":"السليمانية","search_key_ar":"سيطرة ديليزة | نقطة تفتيش عسكرية | السليمانية","admin_district_en":"Al-Sulaymaniyah","admin_governorate_en":"Sulaymaniyah Governorate","search_key_en":"delejha checkpoint | Military checkpoint | Al-Sulaymaniyah | Sulaymaniyah Governorate","name_display":"بازگەی دێلێژە","search_key":"بازگەی دێلێژە | چێکپۆینتی سەربازی | السليمانية | سلێمانی | سيطرة ديليزة | نقطة تفتيش عسكرية | السليمانية | delejha checkpoint | Military checkpoint | Al-Sulaymaniyah | Sulaymaniyah Governorate","admin_pcode":"IQG06Q01","category_group":"emergency_security","category_ku":"چێکپۆینتی سەربازی","category_ar":"نقطة تفتيش عسكرية","category_en":"Military checkpoint","icon_id":"military_checkpoint"}},{"type":"Feature","geometry":{"type":"Point","coordinates":[45.1808056,35.2811466]},"properties":{"id":"osm-security-node-11901796834","osm_id":"11901796834","osm_ids":"11901796834","category":"military_checkpoint","name":"بازگەی سەنگاو","name_ku":"بازگەی سەنگاو","name_ar":"بازگەی سەنگاو","name_en":"بازگەی سەنگاو","aliases_ku":[],"aliases_ar":[],"aliases_en":[],"source":"OpenStreetMap exact checkpoint/security tags","source_date":"2026-07-13","last_reviewed":"2026-08-27","data_release":"2026-07-22-nav-kurd-systematic-dedupe-2027","language_policy":"verified-kurdish-or-source-original","military":"checkpoint","admin_district_ku":"جمجمال","admin_governorate_ku":"سلێمانی","search_key_ku":"بازگەی سەنگاو | چێکپۆینتی سەربازی | جمجمال | سلێمانی","admin_district_ar":"جمجمال","admin_governorate_ar":"السليمانية","search_key_ar":"بازگەی سەنگاو | نقطة تفتيش عسكرية | جمجمال | السليمانية","admin_district_en":"Chamchamal","admin_governorate_en":"Sulaymaniyah Governorate","search_key_en":"بازگەی سەنگاو | Military checkpoint | Chamchamal | Sulaymaniyah Governorate","name_ar_status":"source-original-fallback","name_en_status":"source-original-fallback","name_display":"بازگەی سەنگاو","search_key":"بازگەی سەنگاو | چێکپۆینتی سەربازی | جمجمال | سلێمانی | بازگەی سەنگاو | نقطة تفتيش عسكرية | جمجمال | السليمانية | بازگەی سەنگاو | Military checkpoint | Chamchamal | Sulaymaniyah Governorate","admin_pcode":"IQG06Q02","category_group":"emergency_security","category_ku":"چێکپۆینتی سەربازی","category_ar":"نقطة تفتيش عسكرية","category_en":"Military checkpoint","icon_id":"military_checkpoint"}},{"type":"Feature","geometry":{"type":"Point","coordinates":[44.7437456,35.5905083]},"properties":{"id":"osm-security-node-598059527","osm_id":"598059527","osm_ids":"598059527","category":"military_checkpoint","name":"بازگەی سەیدان","name_ku":"بازگەی سەیدان","name_ar":"سيطرة سيدان","name_en":"saydan checkpoint","aliases_ku":[],"aliases_ar":[],"aliases_en":[],"source":"OpenStreetMap exact checkpoint/security tags","source_date":"2026-07-13","last_reviewed":"2026-08-27","data_release":"2026-07-22-nav-kurd-systematic-dedupe-2027","language_policy":"verified-kurdish-or-source-original","military":"checkpoint","admin_district_ku":"کەرکووک","admin_governorate_ku":"کەرکووک","search_key_ku":"بازگەی سەیدان | چێکپۆینتی سەربازی | کەرکووک","admin_district_ar":"كركوك","admin_governorate_ar":"كركوك","search_key_ar":"سيطرة سيدان | نقطة تفتيش عسكرية | كركوك","admin_district_en":"Kirkuk","admin_governorate_en":"Kirkuk Governorate","search_key_en":"saydan checkpoint | Military checkpoint | Kirkuk | Kirkuk Governorate","name_display":"بازگەی سەیدان","search_key":"بازگەی سەیدان | چێکپۆینتی سەربازی | کەرکووک | سيطرة سيدان | نقطة تفتيش عسكرية | كركوك | saydan checkpoint | Military checkpoint | Kirkuk | Kirkuk Governorate","admin_pcode":"IQG13Q04","category_group":"emergency_security","category_ku":"چێکپۆینتی سەربازی","category_ar":"نقطة تفتيش عسكرية","category_en":"Military checkpoint","icon_id":"military_checkpoint"}},{"type":"Feature","geometry":{"type":"Point","coordinates":[44.3725131,35.5768276]},"properties":{"id":"osm-security-node-9435095043","osm_id":"9435095043","osm_ids":"9435095043","category":"military_checkpoint","name":"بازگەی شوان","name_ku":"بازگەی شوان","name_ar":"سيطرة شوان","name_en":"بازگەی شوان","aliases_ku":[],"aliases_ar":[],"aliases_en":[],"source":"OpenStreetMap exact checkpoint/security tags","source_date":"2026-07-13","last_reviewed":"2026-08-27","data_release":"2026-07-22-nav-kurd-systematic-dedupe-2027","language_policy":"verified-kurdish-or-source-original","military":"checkpoint","admin_district_ku":"کەرکووک","admin_governorate_ku":"کەرکووک","search_key_ku":"بازگەی شوان | چێکپۆینتی سەربازی | کەرکووک","admin_district_ar":"كركوك","admin_governorate_ar":"كركوك","search_key_ar":"سيطرة شوان | نقطة تفتيش عسكرية | كركوك","admin_district_en":"Kirkuk","admin_governorate_en":"Kirkuk Governorate","search_key_en":"بازگەی شوان | Military checkpoint | Kirkuk | Kirkuk Governorate","name_en_status":"source-original-fallback","name_display":"بازگەی شوان","search_key":"بازگەی شوان | چێکپۆینتی سەربازی | کەرکووک | سيطرة شوان | نقطة تفتيش عسكرية | كركوك | بازگەی شوان | Military checkpoint | Kirkuk | Kirkuk Governorate","admin_pcode":"IQG13Q04","category_group":"emergency_security","category_ku":"چێکپۆینتی سەربازی","category_ar":"نقطة تفتيش عسكرية","category_en":"Military checkpoint","icon_id":"military_checkpoint"}},{"type":"Feature","geometry":{"type":"Point","coordinates":[45.4883275,35.4706982]},"properties":{"id":"osm-security-node-2267773189","osm_id":"2267773189","osm_ids":"2267773189,6779157207","category":"military_checkpoint","name":"بازگەی عەربەت","name_ku":"بازگەی عەربەت","name_ar":"بازگەی عەربەت","name_en":"بازگەی عەربەت","aliases_ku":[],"aliases_ar":[],"aliases_en":[],"source":"OpenStreetMap exact checkpoint/security tags","source_date":"2026-07-13","last_reviewed":"2026-08-27","data_release":"2026-07-22-nav-kurd-systematic-dedupe-2027","language_policy":"verified-kurdish-or-source-original","military":"checkpoint","admin_district_ku":"السليمانية","admin_governorate_ku":"سلێمانی","search_key_ku":"بازگەی عەربەت | چێکپۆینتی سەربازی | السليمانية | سلێمانی","admin_district_ar":"السليمانية","admin_governorate_ar":"السليمانية","search_key_ar":"بازگەی عەربەت | نقطة تفتيش عسكرية | السليمانية","admin_district_en":"Al-Sulaymaniyah","admin_governorate_en":"Sulaymaniyah Governorate","search_key_en":"بازگەی عەربەت | Military checkpoint | Al-Sulaymaniyah | Sulaymaniyah Governorate","name_ar_status":"source-original-fallback","name_en_status":"source-original-fallback","name_display":"بازگەی عەربەت","search_key":"بازگەی عەربەت | چێکپۆینتی سەربازی | السليمانية | سلێمانی | بازگەی عەربەت | نقطة تفتيش عسكرية | السليمانية | بازگەی عەربەت | Military checkpoint | Al-Sulaymaniyah | Sulaymaniyah Governorate","admin_pcode":"IQG06Q01","category_group":"emergency_security","category_ku":"چێکپۆینتی سەربازی","category_ar":"نقطة تفتيش عسكرية","category_en":"Military checkpoint","icon_id":"military_checkpoint"}},{"type":"Feature","geometry":{"type":"Point","coordinates":[45.35358,34.1729118]},"properties":{"id":"osm-security-node-4735129987","osm_id":"4735129987","osm_ids":"4735129987","category":"military_checkpoint","name":"بازگەی هاوبەشی پێشمەرگە و سوپای ئێراق","name_ku":"بازگەی هاوبەشی پێشمەرگە و سوپای ئێراق","name_ar":"السيطرة المشتركة - جيش و بيشمركة","name_en":"بازگەی هاوبەشی پێشمەرگە و سوپای ئێراق","aliases_ku":[],"aliases_ar":[],"aliases_en":[],"source":"OpenStreetMap exact checkpoint/security tags","source_date":"2026-07-13","last_reviewed":"2026-08-27","data_release":"2026-07-22-nav-kurd-systematic-dedupe-2027","language_policy":"verified-kurdish-or-source-original","military":"checkpoint","admin_district_ku":"خانەقین","admin_governorate_ku":"دیالە","search_key_ku":"بازگەی هاوبەشی پێشمەرگە و سوپای ئێراق | چێکپۆینتی سەربازی | خانەقین | دیالە","admin_district_ar":"خانقين","admin_governorate_ar":"ديالى","search_key_ar":"السيطرة المشتركة - جيش و بيشمركة | نقطة تفتيش عسكرية | خانقين | ديالى","admin_district_en":"Khanaqin","admin_governorate_en":"Diyala Governorate","search_key_en":"بازگەی هاوبەشی پێشمەرگە و سوپای ئێراق | Military checkpoint | Khanaqin | Diyala Governorate","name_en_status":"source-original-fallback","name_display":"بازگەی هاوبەشی پێشمەرگە و سوپای ئێراق","search_key":"بازگەی هاوبەشی پێشمەرگە و سوپای ئێراق | چێکپۆینتی سەربازی | خانەقین | دیالە | السيطرة المشتركة - جيش و بيشمركة | نقطة تفتيش عسكرية | خانقين | ديالى | بازگەی هاوبەشی پێشمەرگە و سوپای ئێراق | Military checkpoint | Khanaqin | Diyala Governorate","admin_pcode":"IQG10Q05","category_group":"emergency_security","category_ku":"چێکپۆینتی سەربازی","category_ar":"نقطة تفتيش عسكرية","category_en":"Military checkpoint","icon_id":"military_checkpoint"}},{"type":"Feature","geometry":{"type":"Point","coordinates":[44.9870244,35.6733831]},"properties":{"id":"osm-security-node-3686777932","osm_id":"3686777932","osm_ids":"3686777932","category":"military_checkpoint","name":"بازگەی کانی شەیتان","name_ku":"بازگەی کانی شەیتان","name_ar":"سيطرة كاني شيطان","name_en":"بازگەی کانی شەیتان","aliases_ku":[],"aliases_ar":[],"aliases_en":[],"source":"OpenStreetMap exact checkpoint/security tags","source_date":"2026-07-13","last_reviewed":"2026-08-27","data_release":"2026-07-22-nav-kurd-systematic-dedupe-2027","language_policy":"verified-kurdish-or-source-original","military":"checkpoint","admin_district_ku":"جمجمال","admin_governorate_ku":"سلێمانی","search_key_ku":"بازگەی کانی شەیتان | چێکپۆینتی سەربازی | جمجمال | سلێمانی","admin_district_ar":"جمجمال","admin_governorate_ar":"السليمانية","search_key_ar":"سيطرة كاني شيطان | نقطة تفتيش عسكرية | جمجمال | السليمانية","admin_district_en":"Chamchamal","admin_governorate_en":"Sulaymaniyah Governorate","search_key_en":"بازگەی کانی شەیتان | Military checkpoint | Chamchamal | Sulaymaniyah Governorate","name_en_status":"source-original-fallback","name_display":"بازگەی کانی شەیتان","search_key":"بازگەی کانی شەیتان | چێکپۆینتی سەربازی | جمجمال | سلێمانی | سيطرة كاني شيطان | نقطة تفتيش عسكرية | جمجمال | السليمانية | بازگەی کانی شەیتان | Military checkpoint | Chamchamal | Sulaymaniyah Governorate","admin_pcode":"IQG06Q02","category_group":"emergency_security","category_ku":"چێکپۆینتی سەربازی","category_ar":"نقطة تفتيش عسكرية","category_en":"Military checkpoint","icon_id":"military_checkpoint"}},{"type":"Feature","geometry":{"type":"Point","coordinates":[44.435597,35.391142]},"properties":{"id":"osm-security-node-6774183874","osm_id":"6774183874","osm_ids":"6774183874","category":"military_checkpoint","name":"بازگەی کەرکووک-لەیلان","name_ku":"بازگەی کەرکووک-لەیلان","name_ar":"بازگەی کەرکووک-لەیلان","name_en":"بازگەی کەرکووک-لەیلان","aliases_ku":[],"aliases_ar":[],"aliases_en":[],"source":"OpenStreetMap exact checkpoint/security tags","source_date":"2026-07-13","last_reviewed":"2026-08-27","data_release":"2026-07-22-nav-kurd-systematic-dedupe-2027","language_policy":"verified-kurdish-or-source-original","military":"checkpoint","admin_district_ku":"کەرکووک","admin_governorate_ku":"کەرکووک","search_key_ku":"بازگەی کەرکووک-لەیلان | چێکپۆینتی سەربازی | کەرکووک","admin_district_ar":"كركوك","admin_governorate_ar":"كركوك","search_key_ar":"بازگەی کەرکووک-لەیلان | نقطة تفتيش عسكرية | كركوك","admin_district_en":"Kirkuk","admin_governorate_en":"Kirkuk Governorate","search_key_en":"بازگەی کەرکووک-لەیلان | Military checkpoint | Kirkuk | Kirkuk Governorate","name_ar_status":"source-original-fallback","name_en_status":"source-original-fallback","name_display":"بازگەی کەرکووک-لەیلان","search_key":"بازگەی کەرکووک-لەیلان | چێکپۆینتی سەربازی | کەرکووک | بازگەی کەرکووک-لەیلان | نقطة تفتيش عسكرية | كركوك | بازگەی کەرکووک-لەیلان | Military checkpoint | Kirkuk | Kirkuk Governorate","admin_pcode":"IQG13Q04","category_group":"emergency_security","category_ku":"چێکپۆینتی سەربازی","category_ar":"نقطة تفتيش عسكرية","category_en":"Military checkpoint","icon_id":"military_checkpoint"}},{"type":"Feature","geometry":{"type":"Point","coordinates":[43.9698929,36.2152953]},"properties":{"id":"osm-security-node-9635536062","osm_id":"9635536062","osm_ids":"9635536062,9785285138,9785285140,9785285141","category":"military_checkpoint","name":"خاڵی پشکنینی فڕۆکەخانەی نێودەوڵەتی هەولێر","name_ku":"خاڵی پشکنینی فڕۆکەخانەی نێودەوڵەتی هەولێر","name_ar":"خاڵی پشکنینی فڕۆکەخانەی نێودەوڵەتی هەولێر","name_en":"Erbil International Airport check point","aliases_ku":[],"aliases_ar":[],"aliases_en":[],"source":"OpenStreetMap exact checkpoint/security tags","source_date":"2026-07-13","last_reviewed":"2026-08-27","data_release":"2026-07-22-nav-kurd-systematic-dedupe-2027","language_policy":"verified-kurdish-or-source-original","military":"checkpoint","admin_district_ku":"اربيل","admin_governorate_ku":"هەولێر","search_key_ku":"خاڵی پشکنینی فڕۆکەخانەی نێودەوڵەتی هەولێر | چێکپۆینتی سەربازی | اربيل | هەولێر","admin_district_ar":"اربيل","admin_governorate_ar":"اربيل","search_key_ar":"خاڵی پشکنینی فڕۆکەخانەی نێودەوڵەتی هەولێر | نقطة تفتيش عسكرية | اربيل","admin_district_en":"Erbil","admin_governorate_en":"Erbil Governorate","search_key_en":"Erbil International Airport check point | Military checkpoint | Erbil | Erbil Governorate","name_ar_status":"source-original-fallback","name_display":"خاڵی پشکنینی فڕۆکەخانەی نێودەوڵەتی هەولێر","search_key":"خاڵی پشکنینی فڕۆکەخانەی نێودەوڵەتی هەولێر | چێکپۆینتی سەربازی | اربيل | هەولێر | خاڵی پشکنینی فڕۆکەخانەی نێودەوڵەتی هەولێر | نقطة تفتيش عسكرية | اربيل | Erbil International Airport check point | Military checkpoint | Erbil | Erbil Governorate","admin_pcode":"IQG11Q02","category_group":"emergency_security","category_ku":"چێکپۆینتی سەربازی","category_ar":"نقطة تفتيش عسكرية","category_en":"Military checkpoint","icon_id":"military_checkpoint"}},{"type":"Feature","geometry":{"type":"Point","coordinates":[44.1890878,36.3619919]},"properties":{"id":"osm-security-node-5029252333","osm_id":"5029252333","osm_ids":"5029252333","category":"military_checkpoint","name":"خاڵی پشکنینی پیرمام","name_ku":"خاڵی پشکنینی پیرمام","name_ar":"سيطرة بيرمام","name_en":"Pirmam CheckPoint","aliases_ku":[],"aliases_ar":[],"aliases_en":[],"source":"OpenStreetMap exact checkpoint/security tags","source_date":"2026-07-13","last_reviewed":"2026-08-27","data_release":"2026-07-22-nav-kurd-systematic-dedupe-2027","language_policy":"verified-kurdish-or-source-original","military":"checkpoint","admin_district_ku":"شقلاوة","admin_governorate_ku":"هەولێر","search_key_ku":"خاڵی پشکنینی پیرمام | چێکپۆینتی سەربازی | شقلاوة | هەولێر","admin_district_ar":"شقلاوة","admin_governorate_ar":"اربيل","search_key_ar":"سيطرة بيرمام | نقطة تفتيش عسكرية | شقلاوة | اربيل","admin_district_en":"Shaqlawa","admin_governorate_en":"Erbil Governorate","search_key_en":"Pirmam CheckPoint | Military checkpoint | Shaqlawa | Erbil Governorate","name_display":"خاڵی پشکنینی پیرمام","search_key":"خاڵی پشکنینی پیرمام | چێکپۆینتی سەربازی | شقلاوة | هەولێر | سيطرة بيرمام | نقطة تفتيش عسكرية | شقلاوة | اربيل | Pirmam CheckPoint | Military checkpoint | Shaqlawa | Erbil Governorate","admin_pcode":"IQG11Q06","category_group":"emergency_security","category_ku":"چێکپۆینتی سەربازی","category_ar":"نقطة تفتيش عسكرية","category_en":"Military checkpoint","icon_id":"military_checkpoint"}},{"type":"Feature","geometry":{"type":"Point","coordinates":[44.5883363,36.072507]},"properties":{"id":"osm-security-node-3987982227","osm_id":"3987982227","osm_ids":"3987982227,430509889","category":"military_checkpoint","name":"خاڵی پشکنینی کۆیە","name_ku":"خاڵی پشکنینی کۆیە","name_ar":"خاڵی پشکنینی کۆیە","name_en":"خاڵی پشکنینی کۆیە","aliases_ku":[],"aliases_ar":[],"aliases_en":[],"source":"OpenStreetMap exact checkpoint/security tags","source_date":"2026-07-13","last_reviewed":"2026-08-27","data_release":"2026-07-22-nav-kurd-systematic-dedupe-2027","language_policy":"verified-kurdish-or-source-original","military":"checkpoint","admin_district_ku":"كويسنجق","admin_governorate_ku":"هەولێر","search_key_ku":"خاڵی پشکنینی کۆیە | چێکپۆینتی سەربازی | كويسنجق | هەولێر","admin_district_ar":"كويسنجق","admin_governorate_ar":"اربيل","search_key_ar":"خاڵی پشکنینی کۆیە | نقطة تفتيش عسكرية | كويسنجق | اربيل","admin_district_en":"Koysinjaq","admin_governorate_en":"Erbil Governorate","search_key_en":"خاڵی پشکنینی کۆیە | Military checkpoint | Koysinjaq | Erbil Governorate","name_ar_status":"source-original-fallback","name_en_status":"source-original-fallback","name_display":"خاڵی پشکنینی کۆیە","search_key":"خاڵی پشکنینی کۆیە | چێکپۆینتی سەربازی | كويسنجق | هەولێر | خاڵی پشکنینی کۆیە | نقطة تفتيش عسكرية | كويسنجق | اربيل | خاڵی پشکنینی کۆیە | Military checkpoint | Koysinjaq | Erbil Governorate","admin_pcode":"IQG11Q03","category_group":"emergency_security","category_ku":"چێکپۆینتی سەربازی","category_ar":"نقطة تفتيش عسكرية","category_en":"Military checkpoint","icon_id":"military_checkpoint"}},{"type":"Feature","geometry":{"type":"Point","coordinates":[43.7604949,35.3153257]},"properties":{"id":"osm-security-node-4930772421","osm_id":"4930772421","osm_ids":"4930772421","category":"military_checkpoint","name":"سيطرة الدبس","name_ku":"سيطرة الدبس","name_ar":"سيطرة الدبس","name_en":"سيطرة الدبس","aliases_ku":[],"aliases_ar":[],"aliases_en":[],"source":"OpenStreetMap exact checkpoint/security tags","source_date":"2026-07-13","last_reviewed":"2026-08-27","data_release":"2026-07-22-nav-kurd-systematic-dedupe-2027","language_policy":"verified-kurdish-or-source-original","military":"checkpoint","admin_district_ku":"حەویجە","admin_governorate_ku":"کەرکووک","search_key_ku":"سيطرة الدبس | چێکپۆینتی سەربازی | حەویجە | کەرکووک","admin_district_ar":"الحويجة","admin_governorate_ar":"كركوك","search_key_ar":"سيطرة الدبس | نقطة تفتيش عسكرية | الحويجة | كركوك","admin_district_en":"Al-Hawiga","admin_governorate_en":"Kirkuk Governorate","search_key_en":"سيطرة الدبس | Military checkpoint | Al-Hawiga | Kirkuk Governorate","name_ku_status":"source-original-fallback","name_en_status":"source-original-fallback","name_display":"سيطرة الدبس","search_key":"سيطرة الدبس | چێکپۆینتی سەربازی | حەویجە | کەرکووک | سيطرة الدبس | نقطة تفتيش عسكرية | الحويجة | كركوك | سيطرة الدبس | Military checkpoint | Al-Hawiga | Kirkuk Governorate","admin_pcode":"IQG13Q01","category_group":"emergency_security","category_ku":"چێکپۆینتی سەربازی","category_ar":"نقطة تفتيش عسكرية","category_en":"Military checkpoint","icon_id":"military_checkpoint"}},{"type":"Feature","geometry":{"type":"Point","coordinates":[45.1843362,34.2873115]},"properties":{"id":"osm-security-node-4761659723","osm_id":"4761659723","osm_ids":"4761659723","category":"military_checkpoint","name":"سيطرة حلوان","name_ku":"سيطرة حلوان","name_ar":"سيطرة حلوان","name_en":"سيطرة حلوان","aliases_ku":[],"aliases_ar":[],"aliases_en":[],"source":"OpenStreetMap exact checkpoint/security tags","source_date":"2026-07-13","last_reviewed":"2026-08-27","data_release":"2026-07-22-nav-kurd-systematic-dedupe-2027","language_policy":"verified-kurdish-or-source-original","military":"checkpoint","admin_district_ku":"خانەقین","admin_governorate_ku":"دیالە","search_key_ku":"سيطرة حلوان | چێکپۆینتی سەربازی | خانەقین | دیالە","admin_district_ar":"خانقين","admin_governorate_ar":"ديالى","search_key_ar":"سيطرة حلوان | نقطة تفتيش عسكرية | خانقين | ديالى","admin_district_en":"Khanaqin","admin_governorate_en":"Diyala Governorate","search_key_en":"سيطرة حلوان | Military checkpoint | Khanaqin | Diyala Governorate","name_ku_status":"source-original-fallback","name_en_status":"source-original-fallback","name_display":"سيطرة حلوان","search_key":"سيطرة حلوان | چێکپۆینتی سەربازی | خانەقین | دیالە | سيطرة حلوان | نقطة تفتيش عسكرية | خانقين | ديالى | سيطرة حلوان | Military checkpoint | Khanaqin | Diyala Governorate","admin_pcode":"IQG10Q05","category_group":"emergency_security","category_ku":"چێکپۆینتی سەربازی","category_ar":"نقطة تفتيش عسكرية","category_en":"Military checkpoint","icon_id":"military_checkpoint"}},{"type":"Feature","geometry":{"type":"Point","coordinates":[45.4067728,35.8879521]},"properties":{"id":"osm-security-node-7430408448","osm_id":"7430408448","osm_ids":"7430408448","category":"military_checkpoint","name":"سیطرة ماوت","name_ku":"سیطرة ماوت","name_ar":"سیطرة ماوت","name_en":"Mawat Checkpoint","aliases_ku":[],"aliases_ar":[],"aliases_en":[],"source":"OpenStreetMap exact checkpoint/security tags","source_date":"2026-07-13","last_reviewed":"2026-08-27","data_release":"2026-07-22-nav-kurd-systematic-dedupe-2027","language_policy":"verified-kurdish-or-source-original","military":"checkpoint","admin_district_ku":"شهربازار","admin_governorate_ku":"سلێمانی","search_key_ku":"سیطرة ماوت | چێکپۆینتی سەربازی | شهربازار | سلێمانی","admin_district_ar":"شهربازار","admin_governorate_ar":"السليمانية","search_key_ar":"سیطرة ماوت | نقطة تفتيش عسكرية | شهربازار | السليمانية","admin_district_en":"Sharbazher","admin_governorate_en":"Sulaymaniyah Governorate","search_key_en":"Mawat Checkpoint | Military checkpoint | Sharbazher | Sulaymaniyah Governorate","name_ku_status":"source-original-fallback","name_display":"سیطرة ماوت","search_key":"سیطرة ماوت | چێکپۆینتی سەربازی | شهربازار | سلێمانی | سیطرة ماوت | نقطة تفتيش عسكرية | شهربازار | السليمانية | Mawat Checkpoint | Military checkpoint | Sharbazher | Sulaymaniyah Governorate","admin_pcode":"IQG06Q10","category_group":"emergency_security","category_ku":"چێکپۆینتی سەربازی","category_ar":"نقطة تفتيش عسكرية","category_en":"Military checkpoint","icon_id":"military_checkpoint"}},{"type":"Feature","geometry":{"type":"Point","coordinates":[44.2059663,35.0960585]},"properties":{"id":"osm-security-node-7180045785","osm_id":"7180045785","osm_ids":"7180045785","category":"military_checkpoint","name":"فوج الأول لواء 20 الفرقة الخامسة","name_ku":"فوج الأول لواء 20 الفرقة الخامسة","name_ar":"فوج الأول لواء 20 الفرقة الخامسة","name_en":"فوج الأول لواء 20 الفرقة الخامسة","aliases_ku":[],"aliases_ar":[],"aliases_en":[],"source":"OpenStreetMap exact checkpoint/security tags","source_date":"2026-07-13","last_reviewed":"2026-08-27","data_release":"2026-07-22-nav-kurd-systematic-dedupe-2027","language_policy":"verified-kurdish-or-source-original","military":"checkpoint","admin_district_ku":"داقووق","admin_governorate_ku":"کەرکووک","search_key_ku":"فوج الأول لواء 20 الفرقة الخامسة | چێکپۆینتی سەربازی | داقووق | کەرکووک","admin_district_ar":"داقوق","admin_governorate_ar":"كركوك","search_key_ar":"فوج الأول لواء 20 الفرقة الخامسة | نقطة تفتيش عسكرية | داقوق | كركوك","admin_district_en":"Daquq","admin_governorate_en":"Kirkuk Governorate","search_key_en":"فوج الأول لواء 20 الفرقة الخامسة | Military checkpoint | Daquq | Kirkuk Governorate","name_ku_status":"source-original-fallback","name_en_status":"source-original-fallback","name_display":"فوج الأول لواء 20 الفرقة الخامسة","search_key":"فوج الأول لواء 20 الفرقة الخامسة | چێکپۆینتی سەربازی | داقووق | کەرکووک | فوج الأول لواء 20 الفرقة الخامسة | نقطة تفتيش عسكرية | داقوق | كركوك | فوج الأول لواء 20 الفرقة الخامسة | Military checkpoint | Daquq | Kirkuk Governorate","admin_pcode":"IQG13Q02","category_group":"emergency_security","category_ku":"چێکپۆینتی سەربازی","category_ar":"نقطة تفتيش عسكرية","category_en":"Military checkpoint","icon_id":"military_checkpoint"}},{"type":"Feature","geometry":{"type":"Point","coordinates":[44.8892517,35.7630274]},"properties":{"id":"osm-security-node-10824850340","osm_id":"10824850340","osm_ids":"10824850340","category":"police_checkpoint","name":"بازگەی ئاغجەلەر","name_ku":"بازگەی ئاغجەلەر","name_ar":"بازگەی ئاغجەلەر","name_en":"بازگەی ئاغجەلەر","aliases_ku":[],"aliases_ar":[],"aliases_en":[],"source":"OpenStreetMap exact checkpoint/security tags","source_date":"2026-07-13","last_reviewed":"2026-08-27","data_release":"2026-07-22-nav-kurd-systematic-dedupe-2027","language_policy":"verified-kurdish-or-source-original","police":"checkpoint","admin_district_ku":"جمجمال","admin_governorate_ku":"سلێمانی","search_key_ku":"بازگەی ئاغجەلەر | بازگەی پۆلیس | جمجمال | سلێمانی","admin_district_ar":"جمجمال","admin_governorate_ar":"السليمانية","search_key_ar":"بازگەی ئاغجەلەر | نقطة تفتيش للشرطة | جمجمال | السليمانية","admin_district_en":"Chamchamal","admin_governorate_en":"Sulaymaniyah Governorate","search_key_en":"بازگەی ئاغجەلەر | Police checkpoint | Chamchamal | Sulaymaniyah Governorate","name_ar_status":"source-original-fallback","name_en_status":"source-original-fallback","name_display":"بازگەی ئاغجەلەر","search_key":"بازگەی ئاغجەلەر | بازگەی پۆلیس | جمجمال | سلێمانی | بازگەی ئاغجەلەر | نقطة تفتيش للشرطة | جمجمال | السليمانية | بازگەی ئاغجەلەر | Police checkpoint | Chamchamal | Sulaymaniyah Governorate","admin_pcode":"IQG06Q02","category_group":"emergency_security","category_ku":"بازگەی پۆلیس","category_ar":"نقطة تفتيش للشرطة","category_en":"Police checkpoint","icon_id":"police_checkpoint"}},{"type":"Feature","geometry":{"type":"Point","coordinates":[45.3420527,34.4114096]},"properties":{"id":"osm-security-node-2329237205","osm_id":"2329237205","osm_ids":"2329237205","category":"police_checkpoint","name":"بازگەی باوە مەحمی","name_ku":"بازگەی باوە مەحمی","name_ar":"بازگەی باوە مەحمی","name_en":"بازگەی باوە مەحمی","aliases_ku":[],"aliases_ar":[],"aliases_en":[],"source":"OpenStreetMap exact checkpoint/security tags","source_date":"2026-07-13","last_reviewed":"2026-08-27","data_release":"2026-07-22-nav-kurd-systematic-dedupe-2027","language_policy":"verified-kurdish-or-source-original","police":"checkpoint","admin_district_ku":"خانەقین","admin_governorate_ku":"دیالە","search_key_ku":"بازگەی باوە مەحمی | بازگەی پۆلیس | خانەقین | دیالە","admin_district_ar":"خانقين","admin_governorate_ar":"ديالى","search_key_ar":"بازگەی باوە مەحمی | نقطة تفتيش للشرطة | خانقين | ديالى","admin_district_en":"Khanaqin","admin_governorate_en":"Diyala Governorate","search_key_en":"بازگەی باوە مەحمی | Police checkpoint | Khanaqin | Diyala Governorate","name_ar_status":"source-original-fallback","name_en_status":"source-original-fallback","name_display":"بازگەی باوە مەحمی","search_key":"بازگەی باوە مەحمی | بازگەی پۆلیس | خانەقین | دیالە | بازگەی باوە مەحمی | نقطة تفتيش للشرطة | خانقين | ديالى | بازگەی باوە مەحمی | Police checkpoint | Khanaqin | Diyala Governorate","admin_pcode":"IQG10Q05","category_group":"emergency_security","category_ku":"بازگەی پۆلیس","category_ar":"نقطة تفتيش للشرطة","category_en":"Police checkpoint","icon_id":"police_checkpoint"}},{"type":"Feature","geometry":{"type":"Point","coordinates":[45.08641,34.8822106]},"properties":{"id":"osm-security-node-6992037531","osm_id":"6992037531","osm_ids":"6992037531","category":"police_checkpoint","name":"بازگەی سماقە","name_ku":"بازگەی سماقە","name_ar":"بازگەی سماقە","name_en":"بازگەی سماقە","aliases_ku":[],"aliases_ar":[],"aliases_en":[],"source":"OpenStreetMap exact checkpoint/security tags","source_date":"2026-07-13","last_reviewed":"2026-08-27","data_release":"2026-07-22-nav-kurd-systematic-dedupe-2027","language_policy":"verified-kurdish-or-source-original","police":"checkpoint","admin_district_ku":"كلار","admin_governorate_ku":"سلێمانی","search_key_ku":"بازگەی سماقە | بازگەی پۆلیس | كلار | سلێمانی","admin_district_ar":"كلار","admin_governorate_ar":"السليمانية","search_key_ar":"بازگەی سماقە | نقطة تفتيش للشرطة | كلار | السليمانية","admin_district_en":"Kalar","admin_governorate_en":"Sulaymaniyah Governorate","search_key_en":"بازگەی سماقە | Police checkpoint | Kalar | Sulaymaniyah Governorate","name_ar_status":"source-original-fallback","name_en_status":"source-original-fallback","name_display":"بازگەی سماقە","search_key":"بازگەی سماقە | بازگەی پۆلیس | كلار | سلێمانی | بازگەی سماقە | نقطة تفتيش للشرطة | كلار | السليمانية | بازگەی سماقە | Police checkpoint | Kalar | Sulaymaniyah Governorate","admin_pcode":"IQG06Q06","category_group":"emergency_security","category_ku":"بازگەی پۆلیس","category_ar":"نقطة تفتيش للشرطة","category_en":"Police checkpoint","icon_id":"police_checkpoint"}},{"type":"Feature","geometry":{"type":"Point","coordinates":[44.9282501,34.6585843]},"properties":{"id":"osm-security-node-12285401579","osm_id":"12285401579","osm_ids":"12285401579,12285401580","category":"police_checkpoint","name":"بازگەی کفری","name_ku":"بازگەی کفری","name_ar":"سيطرة كفري","name_en":"Kifri Checkpoint","aliases_ku":[],"aliases_ar":[],"aliases_en":[],"source":"OpenStreetMap exact checkpoint/security tags","source_date":"2026-07-13","last_reviewed":"2026-08-27","data_release":"2026-07-22-nav-kurd-systematic-dedupe-2027","language_policy":"verified-kurdish-or-source-original","police":"checkpoint","admin_district_ku":"کفری","admin_governorate_ku":"دیالە","search_key_ku":"بازگەی کفری | بازگەی پۆلیس | کفری | دیالە","admin_district_ar":"كفري","admin_governorate_ar":"ديالى","search_key_ar":"سيطرة كفري | نقطة تفتيش للشرطة | كفري | ديالى","admin_district_en":"Kifri","admin_governorate_en":"Diyala Governorate","search_key_en":"Kifri Checkpoint | Police checkpoint | Kifri | Diyala Governorate","name_display":"بازگەی کفری","search_key":"بازگەی کفری | بازگەی پۆلیس | کفری | دیالە | سيطرة كفري | نقطة تفتيش للشرطة | كفري | ديالى | Kifri Checkpoint | Police checkpoint | Kifri | Diyala Governorate","admin_pcode":"IQG10Q06","category_group":"emergency_security","category_ku":"بازگەی پۆلیس","category_ar":"نقطة تفتيش للشرطة","category_en":"Police checkpoint","icon_id":"police_checkpoint"}},{"type":"Feature","geometry":{"type":"Point","coordinates":[45.1537519,34.2852659]},"properties":{"id":"osm-security-node-4761666421","osm_id":"4761666421","osm_ids":"4761666421","category":"police_checkpoint","name":"سيطرة الجسر جلولاء","name_ku":"سيطرة الجسر جلولاء","name_ar":"سيطرة الجسر جلولاء","name_en":"سيطرة الجسر جلولاء","aliases_ku":[],"aliases_ar":[],"aliases_en":[],"source":"OpenStreetMap exact checkpoint/security tags","source_date":"2026-07-13","last_reviewed":"2026-08-27","data_release":"2026-07-22-nav-kurd-systematic-dedupe-2027","language_policy":"verified-kurdish-or-source-original","police":"checkpoint","admin_district_ku":"خانەقین","admin_governorate_ku":"دیالە","search_key_ku":"سيطرة الجسر جلولاء | بازگەی پۆلیس | خانەقین | دیالە","admin_district_ar":"خانقين","admin_governorate_ar":"ديالى","search_key_ar":"سيطرة الجسر جلولاء | نقطة تفتيش للشرطة | خانقين | ديالى","admin_district_en":"Khanaqin","admin_governorate_en":"Diyala Governorate","search_key_en":"سيطرة الجسر جلولاء | Police checkpoint | Khanaqin | Diyala Governorate","name_ku_status":"source-original-fallback","name_en_status":"source-original-fallback","name_display":"سيطرة الجسر جلولاء","search_key":"سيطرة الجسر جلولاء | بازگەی پۆلیس | خانەقین | دیالە | سيطرة الجسر جلولاء | نقطة تفتيش للشرطة | خانقين | ديالى | سيطرة الجسر جلولاء | Police checkpoint | Khanaqin | Diyala Governorate","admin_pcode":"IQG10Q05","category_group":"emergency_security","category_ku":"بازگەی پۆلیس","category_ar":"نقطة تفتيش للشرطة","category_en":"Police checkpoint","icon_id":"police_checkpoint"}}]}
